{
"type": "FeatureCollection",
"name": "ao3_wlc",
"crs": { "type": "name", "properties": { "name": "urn:ogc:def:crs:EPSG::102008" } },
"features": [
{ "type": "Feature", "properties": { "full_id": "n5910276721", "osm_id": "5910276721", "osm_type": "node", "sport": "weightlifting;crossfit", "name": "Atlanta Strength & Conditioning", "leisure": "sports_centre", "building": "", "gnis:state_id": "", "gnis:county_id": "", "ele": "", "gnis:created": "", "gnis:feature_id": "", "addr:housenumber": "1642", "addr:city": "Marietta", "addr:postcode": "30067", "addr:state": "GA", "alt_name": "", "addr:street": "Powers Ferry Road Southeast", "gnis:county_name": "" }, "geometry": { "type": "Point", "coordinates": [ 1011553.85719, -653063.4658 ] } },
{ "type": "Feature", "properties": { "full_id": "n5910276726", "osm_id": "5910276726", "osm_type": "node", "sport": "weightlifting;crossfit", "name": "Caboose Barbell Club", "leisure": "sports_centre", "building": "", "gnis:state_id": "", "gnis:county_id": "", "ele": "", "gnis:created": "", "gnis:feature_id": "", "addr:housenumber": "1225", "addr:city": "Elmwood", "addr:postcode": "", "addr:state": "LA", "alt_name": "", "addr:street": "North Al Davis Road", "gnis:county_name": "" }, "geometry": { "type": "Point", "coordinates": [ 537806.70153, -1157195.79004 ] } },
{ "type": "Feature", "properties": { "full_id": "n5910361050", "osm_id": "5910361050", "osm_type": "node", "sport": "weightlifting;crossfit", "name": "Redline Athletics", "leisure": "sports_centre", "building": "", "gnis:state_id": "", "gnis:county_id": "", "ele": "", "gnis:created": "", "gnis:feature_id": "", "addr:housenumber": "1801", "addr:city": "Mandeville", "addr:postcode": "70471", "addr:state": "LA", "alt_name": "", "addr:street": "North Causeway Approach", "gnis:county_name": "" }, "geometry": { "type": "Point", "coordinates": [ 544976.03661, -1106467.26376 ] } },
{ "type": "Feature", "properties": { "full_id": "n5910361061", "osm_id": "5910361061", "osm_type": "node", "sport": "weightlifting;crossfit", "name": "Cincinnati Weightlifting Club", "leisure": "sports_centre", "building": "", "gnis:state_id": "", "gnis:county_id": "", "ele": "", "gnis:created": "", "gnis:feature_id": "", "addr:housenumber": "753", "addr:city": "Mason", "addr:postcode": "45040", "addr:state": "OH", "alt_name": "", "addr:street": "Reading Road", "gnis:county_name": "" }, "geometry": { "type": "Point", "coordinates": [ 945363.69353, -18413.74893 ] } },
{ "type": "Feature", "properties": { "full_id": "n5910442401", "osm_id": "5910442401", "osm_type": "node", "sport": "weightlifting;crossfit", "name": "Williams Weightlifting", "leisure": "sports_centre", "building": "", "gnis:state_id": "", "gnis:county_id": "", "ele": "", "gnis:created": "", "gnis:feature_id": "", "addr:housenumber": "5153", "addr:city": "Buford", "addr:postcode": "30518", "addr:state": "GA", "alt_name": "", "addr:street": "Belle Wood Court", "gnis:county_name": "" }, "geometry": { "type": "Point", "coordinates": [ 1051982.29788, -621680.41689 ] } },
{ "type": "Feature", "properties": { "full_id": "n5910442404", "osm_id": "5910442404", "osm_type": "node", "sport": "weightlifting;crossfit", "name": "Winchester Weightlifting", "leisure": "sports_centre", "building": "", "gnis:state_id": "", "gnis:county_id": "", "ele": "", "gnis:created": "", "gnis:feature_id": "", "addr:housenumber": "1199", "addr:city": "Winchester", "addr:postcode": "40391", "addr:state": "KY", "alt_name": "", "addr:street": "W Lexington Ave", "gnis:county_name": "" }, "geometry": { "type": "Point", "coordinates": [ 975252.43955, -174620.33215 ] } },
{ "type": "Feature", "properties": { "full_id": "n5910474544", "osm_id": "5910474544", "osm_type": "node", "sport": "weightlifting;crossfit", "name": "Grace Strenght & Barbell", "leisure": "sports_centre", "building": "", "gnis:state_id": "", "gnis:county_id": "", "ele": "", "gnis:created": "", "gnis:feature_id": "", "addr:housenumber": "1330", "addr:city": "Dothan", "addr:postcode": "36301", "addr:state": "AL", "alt_name": "", "addr:street": "Hartford Hwy", "gnis:county_name": "" }, "geometry": { "type": "Point", "coordinates": [ 963675.7747, -974518.61347 ] } },
{ "type": "Feature", "properties": { "full_id": "n5910474554", "osm_id": "5910474554", "osm_type": "node", "sport": "weightlifting;crossfit", "name": "Louisiana Barbell Club", "leisure": "sports_centre", "building": "", "gnis:state_id": "", "gnis:county_id": "", "ele": "", "gnis:created": "", "gnis:feature_id": "", "addr:housenumber": "150", "addr:city": "Slidell", "addr:postcode": "70460", "addr:state": "LA", "alt_name": "", "addr:street": "Northshore Blvd Ste 2054", "gnis:county_name": "" }, "geometry": { "type": "Point", "coordinates": [ 569915.10277, -1114456.17769 ] } },
{ "type": "Feature", "properties": { "full_id": "n5910524288", "osm_id": "5910524288", "osm_type": "node", "sport": "weightlifting;crossfit", "name": "Team Georgia Weightlifting", "leisure": "sports_centre", "building": "", "gnis:state_id": "", "gnis:county_id": "", "ele": "", "gnis:created": "", "gnis:feature_id": "", "addr:housenumber": "289", "addr:city": "Clayton", "addr:postcode": "30525", "addr:state": "GA", "alt_name": "", "addr:street": "Confederage Dr", "gnis:county_name": "" }, "geometry": { "type": "Point", "coordinates": [ 1091922.9214, -529913.373 ] } },
{ "type": "Feature", "properties": { "full_id": "n5910583820", "osm_id": "5910583820", "osm_type": "node", "sport": "weightlifting;crossfit", "name": "Lift For Life Gym Weightlifting", "leisure": "sports_centre", "building": "", "gnis:state_id": "", "gnis:county_id": "", "ele": "", "gnis:created": "", "gnis:feature_id": "", "addr:housenumber": "1415", "addr:city": "St Louis", "addr:postcode": "63106", "addr:state": "MO", "alt_name": "", "addr:street": "Cass Ave", "gnis:county_name": "" }, "geometry": { "type": "Point", "coordinates": [ 476064.87718, -145509.13681 ] } },
{ "type": "Feature", "properties": { "full_id": "n5910583831", "osm_id": "5910583831", "osm_type": "node", "sport": "weightlifting;crossfit", "name": "Team PathWeigh", "leisure": "sports_centre", "building": "", "gnis:state_id": "", "gnis:county_id": "", "ele": "", "gnis:created": "", "gnis:feature_id": "", "addr:housenumber": "14520 ", "addr:city": "Ballwin", "addr:postcode": "63021", "addr:state": "MO", "alt_name": "", "addr:street": "Manchester Rd", "gnis:county_name": "" }, "geometry": { "type": "Point", "coordinates": [ 449473.311, -152890.22114 ] } },
{ "type": "Feature", "properties": { "full_id": "n5910620574", "osm_id": "5910620574", "osm_type": "node", "sport": "weightlifting;crossfit", "name": "O'Fallon Weightlifting", "leisure": "sports_centre", "building": "", "gnis:state_id": "", "gnis:county_id": "", "ele": "", "gnis:created": "", "gnis:feature_id": "", "addr:housenumber": "2001", "addr:city": "St Peters", "addr:postcode": "63376", "addr:state": "MO", "alt_name": "", "addr:street": "Tade Center Dr", "gnis:county_name": "" }, "geometry": { "type": "Point", "coordinates": [ 436582.67667, -129240.01893 ] } },
{ "type": "Feature", "properties": { "full_id": "n5910620580", "osm_id": "5910620580", "osm_type": "node", "sport": "weightlifting;crossfit", "name": "Bluegrass Barbell", "leisure": "sports_centre", "building": "", "gnis:state_id": "", "gnis:county_id": "", "ele": "", "gnis:created": "", "gnis:feature_id": "", "addr:housenumber": "2240", "addr:city": "Louisville", "addr:postcode": "40205", "addr:state": "KY", "alt_name": "", "addr:street": "Taylorsville Rd", "gnis:county_name": "" }, "geometry": { "type": "Point", "coordinates": [ 850389.44744, -163049.55935 ] } },
{ "type": "Feature", "properties": { "full_id": "n5910669799", "osm_id": "5910669799", "osm_type": "node", "sport": "weightlifting;crossfit", "name": "Elite Strength and Conditioning", "leisure": "sports_centre", "building": "", "gnis:state_id": "", "gnis:county_id": "", "ele": "", "gnis:created": "", "gnis:feature_id": "", "addr:housenumber": "438", "addr:city": "West Salem", "addr:postcode": "62476", "addr:state": "IL", "alt_name": "", "addr:street": "New St", "gnis:county_name": "" }, "geometry": { "type": "Point", "coordinates": [ 656937.83662, -147148.44124 ] } },
{ "type": "Feature", "properties": { "full_id": "n5910751765", "osm_id": "5910751765", "osm_type": "node", "sport": "weightlifting;crossfit", "name": "Team LAB Weightlifting", "leisure": "sports_centre", "building": "", "gnis:state_id": "", "gnis:county_id": "", "ele": "", "gnis:created": "", "gnis:feature_id": "", "addr:housenumber": "5035", "addr:city": "Ballwin ", "addr:postcode": "63021", "addr:state": "MO", "alt_name": "", "addr:street": "Manchester Rd", "gnis:county_name": "" }, "geometry": { "type": "Point", "coordinates": [ 470118.00523, -147791.84874 ] } },
{ "type": "Feature", "properties": { "full_id": "n5910885644", "osm_id": "5910885644", "osm_type": "node", "sport": "weightlifting;crossfit", "name": "PTC Weightlifting", "leisure": "sports_centre", "building": "", "gnis:state_id": "", "gnis:county_id": "", "ele": "", "gnis:created": "", "gnis:feature_id": "", "addr:housenumber": "303", "addr:city": "Peachtree City", "addr:postcode": "30269", "addr:state": "GA", "alt_name": "", "addr:street": "Kelly Dr Ste 7", "gnis:county_name": "" }, "geometry": { "type": "Point", "coordinates": [ 1009128.74563, -715908.71969 ] } },
{ "type": "Feature", "properties": { "full_id": "n5910885663", "osm_id": "5910885663", "osm_type": "node", "sport": "weightlifting;crossfit", "name": "Lone Wolf Weightlifting", "leisure": "sports_centre", "building": "", "gnis:state_id": "", "gnis:county_id": "", "ele": "", "gnis:created": "", "gnis:feature_id": "", "addr:housenumber": "1101", "addr:city": "Dayton", "addr:postcode": "41071", "addr:state": "KY", "alt_name": "", "addr:street": "2nd Ave", "gnis:county_name": "" }, "geometry": { "type": "Point", "coordinates": [ 937566.76865, -47022.57246 ] } },
{ "type": "Feature", "properties": { "full_id": "n5910885667", "osm_id": "5910885667", "osm_type": "node", "sport": "weightlifting;crossfit", "name": "Middle GA Weightlifting", "leisure": "sports_centre", "building": "", "gnis:state_id": "", "gnis:county_id": "", "ele": "", "gnis:created": "", "gnis:feature_id": "", "addr:housenumber": "51", "addr:city": "Fort Balley", "addr:postcode": "31030", "addr:state": "GA", "alt_name": "", "addr:street": "Mossy Creek Dr", "gnis:county_name": "" }, "geometry": { "type": "Point", "coordinates": [ 1097288.62477, -805290.98836 ] } },
{ "type": "Feature", "properties": { "full_id": "n5910885670", "osm_id": "5910885670", "osm_type": "node", "sport": "weightlifting;crossfit", "name": "Nashville Weightlifting", "leisure": "sports_centre", "building": "", "gnis:state_id": "", "gnis:county_id": "", "ele": "", "gnis:created": "", "gnis:feature_id": "", "addr:housenumber": "119B", "addr:city": "Nashbille", "addr:postcode": "37115", "addr:state": "TN", "alt_name": "", "addr:street": "Douglas St", "gnis:county_name": "" }, "geometry": { "type": "Point", "coordinates": [ 788179.52278, -401060.47065 ] } },
{ "type": "Feature", "properties": { "full_id": "n5910922979", "osm_id": "5910922979", "osm_type": "node", "sport": "weightlifting;crossfit", "name": "Sand Dunes Barbell", "leisure": "sports_centre", "building": "", "gnis:state_id": "", "gnis:county_id": "", "ele": "", "gnis:created": "", "gnis:feature_id": "", "addr:housenumber": "980", "addr:city": "Santa Rosa Beach", "addr:postcode": "32459", "addr:state": "FL", "alt_name": "", "addr:street": "Mack Bayou Rd unit 7", "gnis:county_name": "" }, "geometry": { "type": "Point", "coordinates": [ 902932.03036, -1079888.2886 ] } },
{ "type": "Feature", "properties": { "full_id": "n5910276720", "osm_id": "5910276720", "osm_type": "node", "sport": "weightlifting;crossfit", "name": "Athleo Barbell Club", "leisure": "sports_centre", "building": "", "gnis:state_id": "", "gnis:county_id": "", "ele": "", "gnis:created": "", "gnis:feature_id": "", "addr:housenumber": "1818", "addr:city": "Tyler", "addr:postcode": "75701", "addr:state": "TX", "alt_name": "", "addr:street": "Capital Drive", "gnis:county_name": "" }, "geometry": { "type": "Point", "coordinates": [ 60577.12672, -902620.62369 ] } },
{ "type": "Feature", "properties": { "full_id": "n5910361059", "osm_id": "5910361059", "osm_type": "node", "sport": "weightlifting;crossfit", "name": "Bear Canyon Barbell", "leisure": "sports_centre", "building": "", "gnis:state_id": "", "gnis:county_id": "", "ele": "", "gnis:created": "", "gnis:feature_id": "", "addr:housenumber": "9533", "addr:city": "Albuquerque", "addr:postcode": "87111", "addr:state": "NM", "alt_name": "", "addr:street": "Osuna Rd NE", "gnis:county_name": "" }, "geometry": { "type": "Point", "coordinates": [ -908563.08627, -521065.15871 ] } },
{ "type": "Feature", "properties": { "full_id": "n5910361067", "osm_id": "5910361067", "osm_type": "node", "sport": "weightlifting;crossfit", "name": "JonesN4 Barbell", "leisure": "sports_centre", "building": "", "gnis:state_id": "", "gnis:county_id": "", "ele": "", "gnis:created": "", "gnis:feature_id": "", "addr:housenumber": "3131", "addr:city": "San Antonia", "addr:postcode": "78247", "addr:state": "TX", "alt_name": "", "addr:street": "Thousand Oaks Drive", "gnis:county_name": "" }, "geometry": { "type": "Point", "coordinates": [ -227130.62711, -1214984.18418 ] } },
{ "type": "Feature", "properties": { "full_id": "n5910361072", "osm_id": "5910361072", "osm_type": "node", "sport": "weightlifting;crossfit", "name": "Pinnacle Weightlifting", "leisure": "sports_centre", "building": "", "gnis:state_id": "", "gnis:county_id": "", "ele": "", "gnis:created": "", "gnis:feature_id": "", "addr:housenumber": "4839", "addr:city": "Colorado Springs", "addr:postcode": "80918", "addr:state": "CO", "alt_name": "", "addr:street": "NorthPark Dr", "gnis:county_name": "" }, "geometry": { "type": "Point", "coordinates": [ -720437.71518, -95966.37909 ] } },
{ "type": "Feature", "properties": { "full_id": "n5910379506", "osm_id": "5910379506", "osm_type": "node", "sport": "weightlifting;crossfit", "name": "Texas Barbell Club", "leisure": "sports_centre", "building": "", "gnis:state_id": "", "gnis:county_id": "", "ele": "", "gnis:created": "", "gnis:feature_id": "", "addr:housenumber": "6448", "addr:city": "Austin", "addr:postcode": "78752", "addr:state": "TX", "alt_name": "", "addr:street": "E 290 Hwy", "gnis:county_name": "" }, "geometry": { "type": "Point", "coordinates": [ -156464.21783, -1130026.49924 ] } },
{ "type": "Feature", "properties": { "full_id": "n5910442382", "osm_id": "5910442382", "osm_type": "node", "sport": "weightlifting;crossfit", "name": "Colorado Weightlifgting", "leisure": "sports_centre", "building": "", "gnis:state_id": "", "gnis:county_id": "", "ele": "", "gnis:created": "", "gnis:feature_id": "", "addr:housenumber": "8200", "addr:city": "Denver", "addr:postcode": "80231", "addr:state": "CO", "alt_name": "", "addr:street": "E Pacific Pl Unit 110", "gnis:county_name": "" }, "geometry": { "type": "Point", "coordinates": [ -717314.25049, -4194.25612 ] } },
{ "type": "Feature", "properties": { "full_id": "n5910442383", "osm_id": "5910442383", "osm_type": "node", "sport": "weightlifting;crossfit", "name": "Eminence Barbell Club", "leisure": "sports_centre", "building": "", "gnis:state_id": "", "gnis:county_id": "", "ele": "", "gnis:created": "", "gnis:feature_id": "", "addr:housenumber": "864", "addr:city": "Thornton", "addr:postcode": "80229", "addr:state": "CO", "alt_name": "", "addr:street": "E 78th Ave", "gnis:county_name": "" }, "geometry": { "type": "Point", "coordinates": [ -722242.57989, 15073.54963 ] } },
{ "type": "Feature", "properties": { "full_id": "n5910442385", "osm_id": "5910442385", "osm_type": "node", "sport": "weightlifting;crossfit", "name": "Grind House Barbell", "leisure": "sports_centre", "building": "", "gnis:state_id": "", "gnis:county_id": "", "ele": "", "gnis:created": "", "gnis:feature_id": "", "addr:housenumber": "20220", "addr:city": "Houston", "addr:postcode": "77065", "addr:state": "TX", "alt_name": "", "addr:street": "Hempstead Rd Ste 5", "gnis:county_name": "" }, "geometry": { "type": "Point", "coordinates": [ 35043.07081, -1178144.9889 ] } },
{ "type": "Feature", "properties": { "full_id": "n5910442387", "osm_id": "5910442387", "osm_type": "node", "sport": "weightlifting;crossfit", "name": "Kim Barbell Sugar Land", "leisure": "sports_centre", "building": "", "gnis:state_id": "", "gnis:county_id": "", "ele": "", "gnis:created": "", "gnis:feature_id": "", "addr:housenumber": "7915 ", "addr:city": "Sugar Land", "addr:postcode": "77479", "addr:state": "TX", "alt_name": "", "addr:street": "Emerald Haven Dr", "gnis:county_name": "" }, "geometry": { "type": "Point", "coordinates": [ 31624.22145, -1219971.55123 ] } },
{ "type": "Feature", "properties": { "full_id": "n5910442390", "osm_id": "5910442390", "osm_type": "node", "sport": "weightlifting;crossfit", "name": "Miller Weightlifting", "leisure": "sports_centre", "building": "", "gnis:state_id": "", "gnis:county_id": "", "ele": "", "gnis:created": "", "gnis:feature_id": "", "addr:housenumber": "1618", "addr:city": "Santa Fe", "addr:postcode": "87501", "addr:state": "NM", "alt_name": "", "addr:street": "Paseo de la Conquistadora", "gnis:county_name": "" }, "geometry": { "type": "Point", "coordinates": [ -853300.84424, -462833.66364 ] } },
{ "type": "Feature", "properties": { "full_id": "n5910442391", "osm_id": "5910442391", "osm_type": "node", "sport": "weightlifting;crossfit", "name": "Panhandle Power", "leisure": "sports_centre", "building": "", "gnis:state_id": "", "gnis:county_id": "", "ele": "", "gnis:created": "", "gnis:feature_id": "", "addr:housenumber": "1601", "addr:city": "Amarillo ", "addr:postcode": "79102", "addr:state": "TX", "alt_name": "", "addr:street": "S Travis", "gnis:county_name": "" }, "geometry": { "type": "Point", "coordinates": [ -505208.07947, -548939.77586 ] } },
{ "type": "Feature", "properties": { "full_id": "n5910442393", "osm_id": "5910442393", "osm_type": "node", "sport": "weightlifting;crossfit", "name": "R-Kane Union Barbell", "leisure": "sports_centre", "building": "", "gnis:state_id": "", "gnis:county_id": "", "ele": "", "gnis:created": "", "gnis:feature_id": "", "addr:housenumber": "8455", "addr:city": "El Paso", "addr:postcode": "79907", "addr:state": "TX", "alt_name": "", "addr:street": "Gran Vista Dr", "gnis:county_name": "" }, "geometry": { "type": "Point", "coordinates": [ -933354.19228, -917167.64747 ] } },
{ "type": "Feature", "properties": { "full_id": "n5910442395", "osm_id": "5910442395", "osm_type": "node", "sport": "weightlifting;crossfit", "name": "Stonecutter Weightlifting Club", "leisure": "sports_centre", "building": "", "gnis:state_id": "", "gnis:county_id": "", "ele": "", "gnis:created": "", "gnis:feature_id": "", "addr:housenumber": "17224", "addr:city": "Tomball", "addr:postcode": "78613", "addr:state": "TX", "alt_name": "", "addr:street": "Hufsmith Khorville Road Ste B-1", "gnis:county_name": "" }, "geometry": { "type": "Point", "coordinates": [ 38328.00709, -1166469.36569 ] } },
{ "type": "Feature", "properties": { "full_id": "n5910442397", "osm_id": "5910442397", "osm_type": "node", "sport": "weightlifting", "name": "Team Houston Weightlifting", "leisure": "sports_centre", "building": "", "gnis:state_id": "", "gnis:county_id": "", "ele": "", "gnis:created": "", "gnis:feature_id": "", "addr:housenumber": "2102", "addr:city": "League City", "addr:postcode": "77573", "addr:state": "TX", "alt_name": "", "addr:street": "Victoria Ct", "gnis:county_name": "" }, "geometry": { "type": "Point", "coordinates": [ 82276.06389, -1226995.09157 ] } },
{ "type": "Feature", "properties": { "full_id": "n5910442398", "osm_id": "5910442398", "osm_type": "node", "sport": "weightlifting;crossfit", "name": "Team Titan Weightlifting", "leisure": "sports_centre", "building": "", "gnis:state_id": "", "gnis:county_id": "", "ele": "", "gnis:created": "", "gnis:feature_id": "", "addr:housenumber": "5840", "addr:city": "Las Vegas", "addr:postcode": "89139", "addr:state": "NV", "alt_name": "", "addr:street": "La Costa Canyon Ste 200", "gnis:county_name": "" }, "geometry": { "type": "Point", "coordinates": [ 82432.52936, -1221594.12924 ] } },
{ "type": "Feature", "properties": { "full_id": "n5910442399", "osm_id": "5910442399", "osm_type": "node", "sport": "weightlifting;crossfit", "name": "Vaugn Weightlifting", "leisure": "sports_centre", "building": "", "gnis:state_id": "", "gnis:county_id": "", "ele": "", "gnis:created": "", "gnis:feature_id": "", "addr:housenumber": "503", "addr:city": "Belton", "addr:postcode": "76513", "addr:state": "TX", "alt_name": "", "addr:street": "Sparta Rd", "gnis:county_name": "" }, "geometry": { "type": "Point", "coordinates": [ -134084.05886, -1042502.50445 ] } },
{ "type": "Feature", "properties": { "full_id": "n5910474536", "osm_id": "5910474536", "osm_type": "node", "sport": "weightlifting;crossfit", "name": "Wesley Weightlifters", "leisure": "sports_centre", "building": "", "gnis:state_id": "", "gnis:county_id": "", "ele": "", "gnis:created": "", "gnis:feature_id": "", "addr:housenumber": "200", "addr:city": "St Joseph", "addr:postcode": "64504", "addr:state": "MO", "alt_name": "", "addr:street": "Cherokee Way", "gnis:county_name": "" }, "geometry": { "type": "Point", "coordinates": [ 91700.84097, -32555.93656 ] } },
{ "type": "Feature", "properties": { "full_id": "n5910474543", "osm_id": "5910474543", "osm_type": "node", "sport": "weightlifting;crossfit", "name": "Golden Barbell Club", "leisure": "sports_centre", "building": "", "gnis:state_id": "", "gnis:county_id": "", "ele": "", "gnis:created": "", "gnis:feature_id": "", "addr:housenumber": "720", "addr:city": "Golden", "addr:postcode": "80401", "addr:state": "CO", "alt_name": "", "addr:street": "Corporate Cir", "gnis:county_name": "" }, "geometry": { "type": "Point", "coordinates": [ -741024.04059, 2924.68614 ] } },
{ "type": "Feature", "properties": { "full_id": "n5910474546", "osm_id": "5910474546", "osm_type": "node", "sport": "weightlifting;crossfit", "name": "Red Dirt Barbell Club", "leisure": "sports_centre", "building": "", "gnis:state_id": "", "gnis:county_id": "", "ele": "", "gnis:created": "", "gnis:feature_id": "", "addr:housenumber": "517", "addr:city": "Stillwater", "addr:postcode": "74075", "addr:state": "OK", "alt_name": "", "addr:street": "N Husband", "gnis:county_name": "" }, "geometry": { "type": "Point", "coordinates": [ -90314.1342, -454954.41027 ] } },
{ "type": "Feature", "properties": { "full_id": "n5910524294", "osm_id": "5910524294", "osm_type": "node", "sport": "weightlifting;crossfit", "name": "Texas Strength Systems (TSS) Barbell", "leisure": "sports_centre", "building": "", "gnis:state_id": "", "gnis:county_id": "", "ele": "", "gnis:created": "", "gnis:feature_id": "", "addr:housenumber": "10415", "addr:city": "San Antonio", "addr:postcode": "78217", "addr:state": "TX", "alt_name": "", "addr:street": "Perrin Beitel Rd Ste 202", "gnis:county_name": "" }, "geometry": { "type": "Point", "coordinates": [ -224919.67605, -1219482.66165 ] } },
{ "type": "Feature", "properties": { "full_id": "n5910524302", "osm_id": "5910524302", "osm_type": "node", "sport": "weightlifting;crossfit", "name": "Durango Barbell Club", "leisure": "sports_centre", "building": "", "gnis:state_id": "", "gnis:county_id": "", "ele": "", "gnis:created": "", "gnis:feature_id": "", "addr:housenumber": "360 ", "addr:city": "Durango", "addr:postcode": "81301", "addr:state": "CO", "alt_name": "", "addr:street": "S Camino Del Rio", "gnis:county_name": "" }, "geometry": { "type": "Point", "coordinates": [ -992424.48113, -261392.58537 ] } },
{ "type": "Feature", "properties": { "full_id": "n5910524305", "osm_id": "5910524305", "osm_type": "node", "sport": "weightlifting;crossfit", "name": "Front Range Weightlifting Club", "leisure": "sports_centre", "building": "", "gnis:state_id": "", "gnis:county_id": "", "ele": "", "gnis:created": "", "gnis:feature_id": "", "addr:housenumber": "1338", "addr:city": "Denver", "addr:postcode": "80247", "addr:state": "CO", "alt_name": "", "addr:street": "S Valentia St182", "gnis:county_name": "" }, "geometry": { "type": "Point", "coordinates": [ -717007.00974, -2646.43712 ] } },
{ "type": "Feature", "properties": { "full_id": "n5910524310", "osm_id": "5910524310", "osm_type": "node", "sport": "weightlifting;crossfit", "name": "Kansas City Weightlifting Club", "leisure": "sports_centre", "building": "", "gnis:state_id": "", "gnis:county_id": "", "ele": "", "gnis:created": "", "gnis:feature_id": "", "addr:housenumber": "7400", "addr:city": "Overland Park", "addr:postcode": "66213", "addr:state": "KS", "alt_name": "", "addr:street": " W 121 St", "gnis:county_name": "" }, "geometry": { "type": "Point", "coordinates": [ 108694.33625, -127906.11533 ] } },
{ "type": "Feature", "properties": { "full_id": "n5910583819", "osm_id": "5910583819", "osm_type": "node", "sport": "weightlifting;crossfit", "name": "Lawrence Barbell Club", "leisure": "sports_centre", "building": "", "gnis:state_id": "", "gnis:county_id": "", "ele": "", "gnis:created": "", "gnis:feature_id": "", "addr:housenumber": "815", "addr:city": "Lawrence ", "addr:postcode": "66044", "addr:state": "KS", "alt_name": "", "addr:street": "East 12th St", "gnis:county_name": "" }, "geometry": { "type": "Point", "coordinates": [ 63230.62719, -122167.79381 ] } },
{ "type": "Feature", "properties": { "full_id": "n5910583833", "osm_id": "5910583833", "osm_type": "node", "sport": "weightlifting;crossfit", "name": "The Coollest Barbell Club Ever", "leisure": "sports_centre", "building": "", "gnis:state_id": "", "gnis:county_id": "", "ele": "", "gnis:created": "", "gnis:feature_id": "", "addr:housenumber": "1224", "addr:city": "Albuquerque", "addr:postcode": "87104", "addr:state": "NM", "alt_name": "", "addr:street": "Sawmill Rd", "gnis:county_name": "" }, "geometry": { "type": "Point", "coordinates": [ -919636.30502, -524099.17588 ] } },
{ "type": "Feature", "properties": { "full_id": "n5910583835", "osm_id": "5910583835", "osm_type": "node", "sport": "weightlifting;crossfit", "name": "Team 210 Weightlifting", "leisure": "sports_centre", "building": "", "gnis:state_id": "", "gnis:county_id": "", "ele": "", "gnis:created": "", "gnis:feature_id": "", "addr:housenumber": "226", "addr:city": "San Antonio", "addr:postcode": "78216", "addr:state": "TX", "alt_name": "", "addr:street": "W Bitters #108", "gnis:county_name": "" }, "geometry": { "type": "Point", "coordinates": [ -231692.44454, -1215643.21649 ] } },
{ "type": "Feature", "properties": { "full_id": "n5910583840", "osm_id": "5910583840", "osm_type": "node", "sport": "weightlifting;crossfit", "name": "Stanley Weightlifting Club", "leisure": "sports_centre", "building": "", "gnis:state_id": "", "gnis:county_id": "", "ele": "", "gnis:created": "", "gnis:feature_id": "", "addr:housenumber": "2501", "addr:city": "Aurora", "addr:postcode": "80010", "addr:state": "CO", "alt_name": "", "addr:street": "Dallas St", "gnis:county_name": "" }, "geometry": { "type": "Point", "coordinates": [ -715234.40492, 4408.23367 ] } },
{ "type": "Feature", "properties": { "full_id": "n5910583841", "osm_id": "5910583841", "osm_type": "node", "sport": "weightlifting;crossfit", "name": "Stonehenge Weightlifting", "leisure": "sports_centre", "building": "", "gnis:state_id": "", "gnis:county_id": "", "ele": "", "gnis:created": "", "gnis:feature_id": "", "addr:housenumber": "2415", "addr:city": "Cedar Park", "addr:postcode": "78613", "addr:state": "TX", "alt_name": "", "addr:street": "S Bell Blvd", "gnis:county_name": "" }, "geometry": { "type": "Point", "coordinates": [ -166277.1236, -1111605.41591 ] } },
{ "type": "Feature", "properties": { "full_id": "n5910583843", "osm_id": "5910583843", "osm_type": "node", "sport": "weightlifting;crossfit", "name": "BlueWave Weightlifting", "leisure": "sports_centre", "building": "", "gnis:state_id": "", "gnis:county_id": "", "ele": "", "gnis:created": "", "gnis:feature_id": "", "addr:housenumber": "2970", "addr:city": "Fort Worth", "addr:postcode": "76133", "addr:state": "TX", "alt_name": "", "addr:street": "Suffolk Dr", "gnis:county_name": "" }, "geometry": { "type": "Point", "coordinates": [ -121663.39955, -856451.59722 ] } },
{ "type": "Feature", "properties": { "full_id": "n5910620579", "osm_id": "5910620579", "osm_type": "node", "sport": "weightlifting;crossfit", "name": "Spoon Barbell Club", "leisure": "sports_centre", "building": "", "gnis:state_id": "", "gnis:county_id": "", "ele": "", "gnis:created": "", "gnis:feature_id": "", "addr:housenumber": "537", "addr:city": "Richardson", "addr:postcode": "75081", "addr:state": "TX", "alt_name": "", "addr:street": "E Polk St", "gnis:county_name": "" }, "geometry": { "type": "Point", "coordinates": [ -64065.11095, -826880.11798 ] } },
{ "type": "Feature", "properties": { "full_id": "n5910620582", "osm_id": "5910620582", "osm_type": "node", "sport": "weightlifting;crossfit", "name": "Body Armor Weightlifting", "leisure": "sports_centre", "building": "", "gnis:state_id": "", "gnis:county_id": "", "ele": "", "gnis:created": "", "gnis:feature_id": "", "addr:housenumber": "2411", "addr:city": "San Antonio", "addr:postcode": "78215", "addr:state": "TX", "alt_name": "", "addr:street": "Broadway", "gnis:county_name": "" }, "geometry": { "type": "Point", "coordinates": [ -231074.76295, -1229205.7683 ] } },
{ "type": "Feature", "properties": { "full_id": "n5910620887", "osm_id": "5910620887", "osm_type": "node", "sport": "weightlifting;crossfit", "name": "Champion Weightlifting", "leisure": "sports_centre", "building": "", "gnis:state_id": "", "gnis:county_id": "", "ele": "", "gnis:created": "", "gnis:feature_id": "", "addr:housenumber": "1320", "addr:city": "Lees Summit", "addr:postcode": "64081", "addr:state": "MO", "alt_name": "", "addr:street": "SW Market St", "gnis:county_name": "" }, "geometry": { "type": "Point", "coordinates": [ 132661.88003, -129119.39923 ] } },
{ "type": "Feature", "properties": { "full_id": "n5910620888", "osm_id": "5910620888", "osm_type": "node", "sport": "weightlifting;crossfit", "name": "Come and Take it Barbell Club", "leisure": "sports_centre", "building": "", "gnis:state_id": "", "gnis:county_id": "", "ele": "", "gnis:created": "", "gnis:feature_id": "", "addr:housenumber": "5462", "addr:city": "San Antonio ", "addr:postcode": "78251", "addr:state": "TX", "alt_name": "", "addr:street": "Rogers Rd", "gnis:county_name": "" }, "geometry": { "type": "Point", "coordinates": [ -251946.77069, -1224298.99967 ] } },
{ "type": "Feature", "properties": { "full_id": "n5910668479", "osm_id": "5910668479", "osm_type": "node", "sport": "weightlifting;crossfit", "name": "Force Praxeum", "leisure": "sports_centre", "building": "", "gnis:state_id": "", "gnis:county_id": "", "ele": "", "gnis:created": "", "gnis:feature_id": "", "addr:housenumber": "101 ", "addr:city": "Cedar Park", "addr:postcode": "78613", "addr:state": "TX", "alt_name": "", "addr:street": "Trailridge Dr", "gnis:county_name": "" }, "geometry": { "type": "Point", "coordinates": [ -166094.88836, -1107827.376 ] } },
{ "type": "Feature", "properties": { "full_id": "n5910668483", "osm_id": "5910668483", "osm_type": "node", "sport": "weightlifting;crossfit", "name": "Ground to Overhead", "leisure": "sports_centre", "building": "", "gnis:state_id": "", "gnis:county_id": "", "ele": "", "gnis:created": "", "gnis:feature_id": "", "addr:housenumber": "1601", "addr:city": "Wichita Falls", "addr:postcode": "76309", "addr:state": "TX", "alt_name": "", "addr:street": "Kemp Blvd", "gnis:county_name": "" }, "geometry": { "type": "Point", "coordinates": [ -221767.15066, -713407.06053 ] } },
{ "type": "Feature", "properties": { "full_id": "n5910669796", "osm_id": "5910669796", "osm_type": "node", "sport": "weightlifting;crossfit", "name": "DeCO Barbell Club", "leisure": "sports_centre", "building": "", "gnis:state_id": "", "gnis:county_id": "", "ele": "", "gnis:created": "", "gnis:feature_id": "", "addr:housenumber": "923", "addr:city": "Denver", "addr:postcode": "80204", "addr:state": "CO", "alt_name": "", "addr:street": "West 9th Ave", "gnis:county_name": "" }, "geometry": { "type": "Point", "coordinates": [ -725306.60467, 2696.81633 ] } },
{ "type": "Feature", "properties": { "full_id": "n5910669805", "osm_id": "5910669805", "osm_type": "node", "sport": "weightlifting;crossfit", "name": "Texas A&M Weightlifting", "leisure": "sports_centre", "building": "", "gnis:state_id": "", "gnis:county_id": "", "ele": "", "gnis:created": "", "gnis:feature_id": "", "addr:housenumber": "4250", "addr:city": "College Station", "addr:postcode": "77843", "addr:state": "TX", "alt_name": "", "addr:street": "Tamu", "gnis:county_name": "" }, "geometry": { "type": "Point", "coordinates": [ -32009.50986, -1097847.87266 ] } },
{ "type": "Feature", "properties": { "full_id": "n5910751756", "osm_id": "5910751756", "osm_type": "node", "sport": "weightlifting;crossfit", "name": "Valhalla Barbell Club", "leisure": "sports_centre", "building": "", "gnis:state_id": "", "gnis:county_id": "", "ele": "", "gnis:created": "", "gnis:feature_id": "", "addr:housenumber": "1724", "addr:city": "Lafayette", "addr:postcode": "80026", "addr:state": "CO", "alt_name": "", "addr:street": "Majestic Dr #107", "gnis:county_name": "" }, "geometry": { "type": "Point", "coordinates": [ -728030.9077, 32711.04957 ] } },
{ "type": "Feature", "properties": { "full_id": "n5910751774", "osm_id": "5910751774", "osm_type": "node", "sport": "weightlifting;crossfit", "name": "High Desert Athletic", "leisure": "sports_centre", "building": "", "gnis:state_id": "", "gnis:county_id": "", "ele": "", "gnis:created": "", "gnis:feature_id": "", "addr:housenumber": "1433", "addr:city": "Albuquerque", "addr:postcode": "87105", "addr:state": "NM", "alt_name": "", "addr:street": "Dennison Rd SW", "gnis:county_name": "" }, "geometry": { "type": "Point", "coordinates": [ -921274.37035, -527072.85711 ] } },
{ "type": "Feature", "properties": { "full_id": "n5910751775", "osm_id": "5910751775", "osm_type": "node", "sport": "weightlifting;crossfit", "name": "Honor Your Barbell Club", "leisure": "sports_centre", "building": "", "gnis:state_id": "", "gnis:county_id": "", "ele": "", "gnis:created": "", "gnis:feature_id": "", "addr:housenumber": "621", "addr:city": "Springfield", "addr:postcode": "65810", "addr:state": "MO", "alt_name": "", "addr:street": " W Farm Rd 182", "gnis:county_name": "" }, "geometry": { "type": "Point", "coordinates": [ 226595.62881, -336198.35926 ] } },
{ "type": "Feature", "properties": { "full_id": "n5910885647", "osm_id": "5910885647", "osm_type": "node", "sport": "weightlifting;crossfit", "name": "Kim Barbell", "leisure": "sports_centre", "building": "", "gnis:state_id": "", "gnis:county_id": "", "ele": "", "gnis:created": "", "gnis:feature_id": "", "addr:housenumber": "551", "addr:city": "Houston", "addr:postcode": "77007", "addr:state": "TX", "alt_name": "", "addr:street": "N Shepard Dr", "gnis:county_name": "" }, "geometry": { "type": "Point", "coordinates": [ 54859.95408, -1193736.19235 ] } },
{ "type": "Feature", "properties": { "full_id": "n5910885650", "osm_id": "5910885650", "osm_type": "node", "sport": "weightlifting;crossfit", "name": "Podium Up Weightlifting", "leisure": "sports_centre", "building": "", "gnis:state_id": "", "gnis:county_id": "", "ele": "", "gnis:created": "", "gnis:feature_id": "", "addr:housenumber": "120", "addr:city": "Wylie", "addr:postcode": "75098", "addr:state": "TX", "alt_name": "", "addr:street": "Security Ct", "gnis:county_name": "" }, "geometry": { "type": "Point", "coordinates": [ -51397.6451, -819753.26812 ] } },
{ "type": "Feature", "properties": { "full_id": "n5910885652", "osm_id": "5910885652", "osm_type": "node", "sport": "weightlifting;crossfit", "name": "Kratos Weightlifting", "leisure": "sports_centre", "building": "", "gnis:state_id": "", "gnis:county_id": "", "ele": "", "gnis:created": "", "gnis:feature_id": "", "addr:housenumber": "9558", "addr:city": "Lowell", "addr:postcode": "72745", "addr:state": "AR", "alt_name": "", "addr:street": "E Brown Rd", "gnis:county_name": "" }, "geometry": { "type": "Point", "coordinates": [ 155229.2318, -440751.65282 ] } },
{ "type": "Feature", "properties": { "full_id": "n5910885654", "osm_id": "5910885654", "osm_type": "node", "sport": "weightlifting;crossfit", "name": "Las Cruces Weightlifting", "leisure": "sports_centre", "building": "", "gnis:state_id": "", "gnis:county_id": "", "ele": "", "gnis:created": "", "gnis:feature_id": "", "addr:housenumber": "1125", "addr:city": "Las Cruces", "addr:postcode": "88005", "addr:state": "NM", "alt_name": "", "addr:street": "Rainbow Dr", "gnis:county_name": "" }, "geometry": { "type": "Point", "coordinates": [ -967826.54507, -849453.02828 ] } },
{ "type": "Feature", "properties": { "full_id": "n5910885662", "osm_id": "5910885662", "osm_type": "node", "sport": "weightlifting;crossfit", "name": "Lion Chaser Barbell", "leisure": "sports_centre", "building": "", "gnis:state_id": "", "gnis:county_id": "", "ele": "", "gnis:created": "", "gnis:feature_id": "", "addr:housenumber": "721 ", "addr:city": "Gardner", "addr:postcode": "66030", "addr:state": "KS", "alt_name": "", "addr:street": "N Poplar St", "gnis:county_name": "" }, "geometry": { "type": "Point", "coordinates": [ 87082.52599, -138307.65529 ] } },
{ "type": "Feature", "properties": { "full_id": "n5910885671", "osm_id": "5910885671", "osm_type": "node", "sport": "weightlifting;crossfit", "name": "NF Barbell", "leisure": "sports_centre", "building": "", "gnis:state_id": "", "gnis:county_id": "", "ele": "", "gnis:created": "", "gnis:feature_id": "", "addr:housenumber": "2300", "addr:city": "Thornton", "addr:postcode": "80233", "addr:state": "CO", "alt_name": "", "addr:street": "E 120th Ave", "gnis:county_name": "" }, "geometry": { "type": "Point", "coordinates": [ -719853.25793, 23809.93363 ] } },
{ "type": "Feature", "properties": { "full_id": "n5910923590", "osm_id": "5910923590", "osm_type": "node", "sport": "weightlifting;crossfit", "name": "Strength Academy", "leisure": "sports_centre", "building": "", "gnis:state_id": "", "gnis:county_id": "", "ele": "", "gnis:created": "", "gnis:feature_id": "", "addr:housenumber": "2015", "addr:city": "Albuquerque", "addr:postcode": "87102", "addr:state": "NM", "alt_name": "", "addr:street": "7th St Ste A1", "gnis:county_name": "" }, "geometry": { "type": "Point", "coordinates": [ -918974.17372, -523526.52898 ] } },
{ "type": "Feature", "properties": { "full_id": "n5910923592", "osm_id": "5910923592", "osm_type": "node", "sport": "weightlifting;crossfit", "name": "Strength Guild", "leisure": "sports_centre", "building": "", "gnis:state_id": "", "gnis:county_id": "", "ele": "", "gnis:created": "", "gnis:feature_id": "", "addr:housenumber": "1808", "addr:city": "Olath", "addr:postcode": "66061", "addr:state": "KS", "alt_name": "", "addr:street": "E Kansas City Rd", "gnis:county_name": "" }, "geometry": { "type": "Point", "coordinates": [ 99025.74958, -129022.5895 ] } },
{ "type": "Feature", "properties": { "full_id": "n5910361056", "osm_id": "5910361056", "osm_type": "node", "sport": "weightlifting;crossfit", "name": "Northside Lifting Club", "leisure": "sports_centre", "building": "", "gnis:state_id": "", "gnis:county_id": "", "ele": "", "gnis:created": "", "gnis:feature_id": "", "addr:housenumber": "8", "addr:city": "Brooklyn", "addr:postcode": "11249", "addr:state": "NY", "alt_name": "", "addr:street": "Berry Street", "gnis:county_name": "" }, "geometry": { "type": "Point", "coordinates": [ 1736367.63013, 288023.36045 ] } },
{ "type": "Feature", "properties": { "full_id": "n5910361070", "osm_id": "5910361070", "osm_type": "node", "sport": "weightlifting;crossfit", "name": "New Haven Weightlifting", "leisure": "sports_centre", "building": "", "gnis:state_id": "", "gnis:county_id": "", "ele": "", "gnis:created": "", "gnis:feature_id": "", "addr:housenumber": "470", "addr:city": "New Haven", "addr:postcode": "06511", "addr:state": "CT", "alt_name": "", "addr:street": "James St Ste 1", "gnis:county_name": "" }, "geometry": { "type": "Point", "coordinates": [ 1800580.85845, 375630.7541 ] } },
{ "type": "Feature", "properties": { "full_id": "n5910442380", "osm_id": "5910442380", "osm_type": "node", "sport": "weightlifting;crossfit", "name": "Brooklyn Barbell Club", "leisure": "sports_centre", "building": "", "gnis:state_id": "", "gnis:county_id": "", "ele": "", "gnis:created": "", "gnis:feature_id": "", "addr:housenumber": "98", "addr:city": "Brookly", "addr:postcode": "11222", "addr:state": "NY", "alt_name": "", "addr:street": "Bayard St", "gnis:county_name": "" }, "geometry": { "type": "Point", "coordinates": [ 1737022.13951, 287764.96593 ] } },
{ "type": "Feature", "properties": { "full_id": "n5910442389", "osm_id": "5910442389", "osm_type": "node", "sport": "weightlifting;crossfit", "name": "Manhattan Barbell", "leisure": "sports_centre", "building": "", "gnis:state_id": "", "gnis:county_id": "", "ele": "", "gnis:created": "", "gnis:feature_id": "", "addr:housenumber": "44", "addr:city": "New York", "addr:postcode": "10030", "addr:state": "NY", "alt_name": "", "addr:street": "W 28th St 2d floor ", "gnis:county_name": "" }, "geometry": { "type": "Point", "coordinates": [ 1733045.43501, 290094.88513 ] } },
{ "type": "Feature", "properties": { "full_id": "n5910442402", "osm_id": "5910442402", "osm_type": "node", "sport": "weightlifting;crossfit", "name": "WillyB Barbell Club", "leisure": "sports_centre", "building": "", "gnis:state_id": "", "gnis:county_id": "", "ele": "", "gnis:created": "", "gnis:feature_id": "", "addr:housenumber": "667", "addr:city": "Brooklyn", "addr:postcode": "11211", "addr:state": "NY", "alt_name": "", "addr:street": "Grand St", "gnis:county_name": "" }, "geometry": { "type": "Point", "coordinates": [ 1737389.5517, 286991.00673 ] } },
{ "type": "Feature", "properties": { "full_id": "n5910474532", "osm_id": "5910474532", "osm_type": "node", "sport": "weightlifting;crossfit", "name": "Bastion Barbell Club", "leisure": "sports_centre", "building": "", "gnis:state_id": "", "gnis:county_id": "", "ele": "", "gnis:created": "", "gnis:feature_id": "", "addr:housenumber": "155", "addr:city": "Huntington Station", "addr:postcode": "11746", "addr:state": "NY", "alt_name": "", "addr:street": "E 2nd St", "gnis:county_name": "" }, "geometry": { "type": "Point", "coordinates": [ 1775126.72389, 313281.11222 ] } },
{ "type": "Feature", "properties": { "full_id": "n5910474533", "osm_id": "5910474533", "osm_type": "node", "sport": "weightlifting;crossfit", "name": "Bayonne Weightlifting Club", "leisure": "sports_centre", "building": "", "gnis:state_id": "", "gnis:county_id": "", "ele": "", "gnis:created": "", "gnis:feature_id": "", "addr:housenumber": "535", "addr:city": "Bayonne", "addr:postcode": "07002", "addr:state": "NJ", "alt_name": "", "addr:street": "Broadway", "gnis:county_name": "" }, "geometry": { "type": "Point", "coordinates": [ 1725375.41282, 278536.75492 ] } },
{ "type": "Feature", "properties": { "full_id": "n5910474549", "osm_id": "5910474549", "osm_type": "node", "sport": "weightlifting;crossfit", "name": "Riverside Weightlifting", "leisure": "sports_centre", "building": "", "gnis:state_id": "", "gnis:county_id": "", "ele": "", "gnis:created": "", "gnis:feature_id": "", "addr:housenumber": "171", "addr:city": "Macon", "addr:postcode": "31201", "addr:state": "GA", "alt_name": "", "addr:street": "Spring St Ste B", "gnis:county_name": "" }, "geometry": { "type": "Point", "coordinates": [ 1732675.20536, 287472.98828 ] } },
{ "type": "Feature", "properties": { "full_id": "n5910474555", "osm_id": "5910474555", "osm_type": "node", "sport": "weightlifting;crossfit", "name": "Ludus Weightlifting", "leisure": "sports_centre", "building": "", "gnis:state_id": "", "gnis:county_id": "", "ele": "", "gnis:created": "", "gnis:feature_id": "", "addr:housenumber": "1460", "addr:city": "North Brunswick", "addr:postcode": "08902", "addr:state": "NJ", "alt_name": "", "addr:street": "Livingston Ave Bld 300C", "gnis:county_name": "" }, "geometry": { "type": "Point", "coordinates": [ 1702761.57707, 248244.48269 ] } },
{ "type": "Feature", "properties": { "full_id": "n5910583822", "osm_id": "5910583822", "osm_type": "node", "sport": "weightlifting;crossfit", "name": "Murder of Crows Weightlifting Club", "leisure": "sports_centre", "building": "", "gnis:state_id": "", "gnis:county_id": "", "ele": "", "gnis:created": "", "gnis:feature_id": "", "addr:housenumber": "1010 ", "addr:city": "Brooklyn", "addr:postcode": "11225", "addr:state": "NY", "alt_name": "", "addr:street": "Dean St", "gnis:county_name": "" }, "geometry": { "type": "Point", "coordinates": [ 1737471.85289, 282883.1656 ] } },
{ "type": "Feature", "properties": { "full_id": "n5910583823", "osm_id": "5910583823", "osm_type": "node", "sport": "weightlifting;crossfit", "name": "New York City Barbell", "leisure": "sports_centre", "building": "", "gnis:state_id": "", "gnis:county_id": "", "ele": "", "gnis:created": "", "gnis:feature_id": "", "addr:housenumber": "315", "addr:city": "New York City", "addr:postcode": "10018", "addr:state": "NY", "alt_name": "", "addr:street": "W 36th St", "gnis:county_name": "" }, "geometry": { "type": "Point", "coordinates": [ 1732594.41911, 290981.30036 ] } },
{ "type": "Feature", "properties": { "full_id": "n5910583827", "osm_id": "5910583827", "osm_type": "node", "sport": "weightlifting;crossfit", "name": "Peoples' Republic of the Dojo", "leisure": "sports_centre", "building": "", "gnis:state_id": "", "gnis:county_id": "", "ele": "", "gnis:created": "", "gnis:feature_id": "", "addr:housenumber": "36", "addr:city": "Leominster", "addr:postcode": "01453", "addr:state": "MA", "alt_name": "", "addr:street": "Lanidies Ln", "gnis:county_name": "" }, "geometry": { "type": "Point", "coordinates": [ 1852210.3489, 538663.48259 ] } },
{ "type": "Feature", "properties": { "full_id": "n5910583836", "osm_id": "5910583836", "osm_type": "node", "sport": "weightlifting;crossfit", "name": "Robinson Weightlifting", "leisure": "sports_centre", "building": "", "gnis:state_id": "", "gnis:county_id": "", "ele": "", "gnis:created": "", "gnis:feature_id": "", "addr:housenumber": "72", "addr:city": "Franklin", "addr:postcode": "02038", "addr:state": "MA", "alt_name": "", "addr:street": "Grove St Suites 1&2", "gnis:county_name": "" }, "geometry": { "type": "Point", "coordinates": [ 1890421.07712, 492144.67371 ] } },
{ "type": "Feature", "properties": { "full_id": "n5910620573", "osm_id": "5910620573", "osm_type": "node", "sport": "weightlifting;crossfit", "name": "JDI Barbell Club", "leisure": "sports_centre", "building": "", "gnis:state_id": "", "gnis:county_id": "", "ele": "", "gnis:created": "", "gnis:feature_id": "", "addr:housenumber": "285", "addr:city": "New York", "addr:postcode": "10002", "addr:state": "NY", "alt_name": "", "addr:street": "Grand Street", "gnis:county_name": "" }, "geometry": { "type": "Point", "coordinates": [ 1733618.37497, 286809.85447 ] } },
{ "type": "Feature", "properties": { "full_id": "n5910751751", "osm_id": "5910751751", "osm_type": "node", "sport": "weightlifting;crossfit", "name": "The Rock Barbell Club", "leisure": "sports_centre", "building": "", "gnis:state_id": "", "gnis:county_id": "", "ele": "", "gnis:created": "", "gnis:feature_id": "", "addr:housenumber": "100", "addr:city": "Rockville Centre", "addr:postcode": "11563", "addr:state": "NY", "alt_name": "", "addr:street": "N Oceanside Rd", "gnis:county_name": "" }, "geometry": { "type": "Point", "coordinates": [ 1763244.29365, 286702.70493 ] } },
{ "type": "Feature", "properties": { "full_id": "n5910751755", "osm_id": "5910751755", "osm_type": "node", "sport": "weightlifting;crossfit", "name": "Union Square Barbell Club", "leisure": "sports_centre", "building": "", "gnis:state_id": "", "gnis:county_id": "", "ele": "", "gnis:created": "", "gnis:feature_id": "", "addr:housenumber": "1", "addr:city": "New York", "addr:postcode": "10003", "addr:state": "NY", "alt_name": "", "addr:street": "Union Square West", "gnis:county_name": "" }, "geometry": { "type": "Point", "coordinates": [ 1733182.05742, 288890.03018 ] } },
{ "type": "Feature", "properties": { "full_id": "n5910751763", "osm_id": "5910751763", "osm_type": "node", "sport": "weightlifting;crossfit", "name": "Rumbler Weightlifting", "leisure": "sports_centre", "building": "", "gnis:state_id": "", "gnis:county_id": "", "ele": "", "gnis:created": "", "gnis:feature_id": "", "addr:housenumber": "26", "addr:city": "Sanhornton", "addr:postcode": "03269", "addr:state": "NH", "alt_name": "", "addr:street": "Gray Rd", "gnis:county_name": "" }, "geometry": { "type": "Point", "coordinates": [ 1839028.16623, 656331.84212 ] } },
{ "type": "Feature", "properties": { "full_id": "n5910885658", "osm_id": "5910885658", "osm_type": "node", "sport": "weightlifting;crossfit", "name": "LBH of NYC Dept of Parks Weightlifting", "leisure": "sports_centre", "building": "", "gnis:state_id": "", "gnis:county_id": "", "ele": "", "gnis:created": "", "gnis:feature_id": "", "addr:housenumber": "93-29", "addr:city": "Rego Park", "addr:postcode": "11374", "addr:state": "NY", "alt_name": "", "addr:street": "Queens Blvd", "gnis:county_name": "" }, "geometry": { "type": "Point", "coordinates": [ 1743055.52032, 290786.46439 ] } },
{ "type": "Feature", "properties": { "full_id": "n5910922977", "osm_id": "5910922977", "osm_type": "node", "sport": "weightlifting;crossfit", "name": "Team BFS Weightlifting", "leisure": "sports_centre", "building": "", "gnis:state_id": "", "gnis:county_id": "", "ele": "", "gnis:created": "", "gnis:feature_id": "", "addr:housenumber": "19", "addr:city": "East Greenwich", "addr:postcode": "02818", "addr:state": "RI", "alt_name": "", "addr:street": "Somerset St #2", "gnis:county_name": "" }, "geometry": { "type": "Point", "coordinates": [ 1900979.82612, 443348.54506 ] } },
{ "type": "Feature", "properties": { "full_id": "n5910361054", "osm_id": "5910361054", "osm_type": "node", "sport": "weightlifting;crossfit", "name": "Dedicated Strength", "leisure": "sports_centre", "building": "", "gnis:state_id": "", "gnis:county_id": "", "ele": "", "gnis:created": "", "gnis:feature_id": "", "addr:housenumber": "1802", "addr:city": "Washington", "addr:postcode": "20001", "addr:state": "DC", "alt_name": "", "addr:street": "11th Street Northwest", "gnis:county_name": "" }, "geometry": { "type": "Point", "coordinates": [ 1540288.66711, 26686.55014 ] } },
{ "type": "Feature", "properties": { "full_id": "n5910361069", "osm_id": "5910361069", "osm_type": "node", "sport": "weightlifting;crossfit", "name": "McElravy Waytlifting", "leisure": "sports_centre", "building": "", "gnis:state_id": "", "gnis:county_id": "", "ele": "", "gnis:created": "", "gnis:feature_id": "", "addr:housenumber": "70", "addr:city": "Rittman", "addr:postcode": "44270", "addr:state": "OH", "alt_name": "", "addr:street": "Industrial Ave", "gnis:county_name": "" }, "geometry": { "type": "Point", "coordinates": [ 1121913.44867, 199372.27621 ] } },
{ "type": "Feature", "properties": { "full_id": "n5910474541", "osm_id": "5910474541", "osm_type": "node", "sport": "weightlifting;crossfit", "name": "Black & Red Barbell", "leisure": "sports_centre", "building": "", "gnis:state_id": "", "gnis:county_id": "", "ele": "", "gnis:created": "", "gnis:feature_id": "", "addr:housenumber": "8504 ", "addr:city": "Tysons Corner", "addr:postcode": "22182", "addr:state": "VA", "alt_name": "", "addr:street": "Tyco Rd", "gnis:county_name": "" }, "geometry": { "type": "Point", "coordinates": [ 1522944.21956, 25390.28957 ] } },
{ "type": "Feature", "properties": { "full_id": "n5910474545", "osm_id": "5910474545", "osm_type": "node", "sport": "weightlifting;crossfit", "name": "Great Lakes Barbell Club", "leisure": "sports_centre", "building": "", "gnis:state_id": "", "gnis:county_id": "", "ele": "", "gnis:created": "", "gnis:feature_id": "", "addr:housenumber": "324", "addr:city": "Lake Orion", "addr:postcode": "48362", "addr:state": "MI", "alt_name": "", "addr:street": "Indian Ridge Dr", "gnis:county_name": "" }, "geometry": { "type": "Point", "coordinates": [ 978321.47833, 396005.75854 ] } },
{ "type": "Feature", "properties": { "full_id": "n5910524291", "osm_id": "5910524291", "osm_type": "node", "sport": "weightlifting;crossfit", "name": "Three Ships Weightlifting", "leisure": "sports_centre", "building": "", "gnis:state_id": "", "gnis:county_id": "", "ele": "", "gnis:created": "", "gnis:feature_id": "", "addr:housenumber": "624", "addr:city": "Chesapeake", "addr:postcode": "23320", "addr:state": "VA", "alt_name": "", "addr:street": "Innovation Drive Ste 105", "gnis:county_name": "" }, "geometry": { "type": "Point", "coordinates": [ 1658366.30758, -210871.47004 ] } },
{ "type": "Feature", "properties": { "full_id": "n5910524299", "osm_id": "5910524299", "osm_type": "node", "sport": "weightlifting;crossfit", "name": "Columbus Weightlifting Club", "leisure": "sports_centre", "building": "", "gnis:state_id": "", "gnis:county_id": "", "ele": "", "gnis:created": "", "gnis:feature_id": "", "addr:housenumber": "6925", "addr:city": "Reynoldsburg", "addr:postcode": "43068", "addr:state": "OH", "alt_name": "", "addr:street": "Americana Pkwy", "gnis:county_name": "" }, "geometry": { "type": "Point", "coordinates": [ 1057496.0176, 65263.05874 ] } },
{ "type": "Feature", "properties": { "full_id": "n5910524300", "osm_id": "5910524300", "osm_type": "node", "sport": "weightlifting;crossfit", "name": "Crossfit Lynchburg", "leisure": "sports_centre", "building": "", "gnis:state_id": "", "gnis:county_id": "", "ele": "", "gnis:created": "", "gnis:feature_id": "", "addr:housenumber": "310 ", "addr:city": "Lynchburg", "addr:postcode": "24501", "addr:state": "VA", "alt_name": "", "addr:street": "Oakley Ave", "gnis:county_name": "" }, "geometry": { "type": "Point", "coordinates": [ 1399378.90563, -181512.68069 ] } },
{ "type": "Feature", "properties": { "full_id": "n5910583828", "osm_id": "5910583828", "osm_type": "node", "sport": "weightlifting;crossfit", "name": "Pittsburgh Barbell Club", "leisure": "sports_centre", "building": "", "gnis:state_id": "", "gnis:county_id": "", "ele": "", "gnis:created": "", "gnis:feature_id": "", "addr:housenumber": "331", "addr:city": "Bridgeville", "addr:postcode": "15017", "addr:state": "PA", "alt_name": "", "addr:street": "Station St", "gnis:county_name": "" }, "geometry": { "type": "Point", "coordinates": [ 1263957.52823, 148507.43333 ] } },
{ "type": "Feature", "properties": { "full_id": "n5910583829", "osm_id": "5910583829", "osm_type": "node", "sport": "weightlifting;crossfit", "name": "Project Lift Weightlifting", "leisure": "sports_centre", "building": "", "gnis:state_id": "", "gnis:county_id": "", "ele": "", "gnis:created": "", "gnis:feature_id": "", "addr:housenumber": "5040", "addr:city": "Hilliard", "addr:postcode": "43026", "addr:state": "OH", "alt_name": "", "addr:street": "Nike Dr Ste B", "gnis:county_name": "" }, "geometry": { "type": "Point", "coordinates": [ 1030260.111, 69312.88307 ] } },
{ "type": "Feature", "properties": { "full_id": "n5910620565", "osm_id": "5910620565", "osm_type": "node", "sport": "weightlifting;crossfit", "name": "CHFP Weightlifting", "leisure": "sports_centre", "building": "", "gnis:state_id": "", "gnis:county_id": "", "ele": "", "gnis:created": "", "gnis:feature_id": "", "addr:housenumber": "607", "addr:city": "Arlington", "addr:postcode": "22202", "addr:state": "VA", "alt_name": "", "addr:street": "S Ball St", "gnis:county_name": "" }, "geometry": { "type": "Point", "coordinates": [ 1539737.37189, 20490.31776 ] } },
{ "type": "Feature", "properties": { "full_id": "n5910620581", "osm_id": "5910620581", "osm_type": "node", "sport": "weightlifting;crossfit", "name": "Choptank Weightlifting", "leisure": "sports_centre", "building": "", "gnis:state_id": "", "gnis:county_id": "", "ele": "", "gnis:created": "", "gnis:feature_id": "", "addr:housenumber": "9315", "addr:city": "Columbia", "addr:postcode": "20602", "addr:state": "MD", "alt_name": "", "addr:street": "Snowden River Pkwy", "gnis:county_name": "" }, "geometry": { "type": "Point", "coordinates": [ 1549613.12825, 59844.18555 ] } },
{ "type": "Feature", "properties": { "full_id": "n5910620886", "osm_id": "5910620886", "osm_type": "node", "sport": "weightlifting;crossfit", "name": "Burnt Boat Barbell", "leisure": "sports_centre", "building": "", "gnis:state_id": "", "gnis:county_id": "", "ele": "", "gnis:created": "", "gnis:feature_id": "", "addr:housenumber": "21531", "addr:city": "Sterling", "addr:postcode": "22066", "addr:state": "VA", "alt_name": "", "addr:street": "Blackwood Ct 110", "gnis:county_name": "" }, "geometry": { "type": "Point", "coordinates": [ 1506719.24274, 32694.22663 ] } },
{ "type": "Feature", "properties": { "full_id": "n5910668481", "osm_id": "5910668481", "osm_type": "node", "sport": "weightlifting;crossfit", "name": "Garage Strength", "leisure": "sports_centre", "building": "", "gnis:state_id": "", "gnis:county_id": "", "ele": "", "gnis:created": "", "gnis:feature_id": "", "addr:housenumber": "8832", "addr:city": "Fleetwood", "addr:postcode": "19522", "addr:state": "PA", "alt_name": "", "addr:street": "Allentown Pike", "gnis:county_name": "" }, "geometry": { "type": "Point", "coordinates": [ 1593963.19577, 224213.38086 ] } },
{ "type": "Feature", "properties": { "full_id": "n5910669797", "osm_id": "5910669797", "osm_type": "node", "sport": "weightlifting;crossfit", "name": "East Coast Gold Weightlifting", "leisure": "sports_centre", "building": "", "gnis:state_id": "", "gnis:county_id": "", "ele": "", "gnis:created": "", "gnis:feature_id": "", "addr:housenumber": "5741", "addr:city": "Virginia Beach", "addr:postcode": "23455", "addr:state": "VA", "alt_name": "", "addr:street": "Bayside Rd", "gnis:county_name": "" }, "geometry": { "type": "Point", "coordinates": [ 1656874.52795, -191366.93856 ] } },
{ "type": "Feature", "properties": { "full_id": "n5910751762", "osm_id": "5910751762", "osm_type": "node", "sport": "weightlifting;crossfit", "name": "Ronin Weightlifting", "leisure": "sports_centre", "building": "", "gnis:state_id": "", "gnis:county_id": "", "ele": "", "gnis:created": "", "gnis:feature_id": "", "addr:housenumber": "4270 F", "addr:city": "Cantilly", "addr:postcode": "20151", "addr:state": "VA", "alt_name": "", "addr:street": "Henniger Ct", "gnis:county_name": "" }, "geometry": { "type": "Point", "coordinates": [ 1508322.42717, 16820.11165 ] } },
{ "type": "Feature", "properties": { "full_id": "n5910885641", "osm_id": "5910885641", "osm_type": "node", "sport": "weightlifting;crossfit", "name": "MASH MAFIA Weightlifting", "leisure": "sports_centre", "building": "", "gnis:state_id": "", "gnis:county_id": "", "ele": "", "gnis:created": "", "gnis:feature_id": "", "addr:housenumber": "6497", "addr:city": "Lewisville", "addr:postcode": "27023", "addr:state": "NC", "alt_name": "", "addr:street": "Shallowford Rd", "gnis:county_name": "" }, "geometry": { "type": "Point", "coordinates": [ 1321695.48025, -350213.50045 ] } },
{ "type": "Feature", "properties": { "full_id": "n5910885646", "osm_id": "5910885646", "osm_type": "node", "sport": "weightlifting;crossfit", "name": "KiloDelphia", "leisure": "sports_centre", "building": "", "gnis:state_id": "", "gnis:county_id": "", "ele": "", "gnis:created": "", "gnis:feature_id": "", "addr:housenumber": "4012", "addr:city": "Philadelphia", "addr:postcode": "19129", "addr:state": "PA", "alt_name": "", "addr:street": "Ridge Ave", "gnis:county_name": "" }, "geometry": { "type": "Point", "coordinates": [ 1659139.79533, 183674.79252 ] } },
{ "type": "Feature", "properties": { "full_id": "n5910885649", "osm_id": "5910885649", "osm_type": "node", "sport": "weightlifting;crossfit", "name": "Philadelphia Barbell", "leisure": "sports_centre", "building": "", "gnis:state_id": "", "gnis:county_id": "", "ele": "", "gnis:created": "", "gnis:feature_id": "", "addr:housenumber": "1414", "addr:city": "Philadelphia", "addr:postcode": "19147", "addr:state": "PA", "alt_name": "", "addr:street": "Darien St", "gnis:county_name": "" }, "geometry": { "type": "Point", "coordinates": [ 1663492.27661, 175503.67724 ] } },
{ "type": "Feature", "properties": { "full_id": "n5910885653", "osm_id": "5910885653", "osm_type": "node", "sport": "weightlifting;crossfit", "name": "Krypton Barbell", "leisure": "sports_centre", "building": "", "gnis:state_id": "", "gnis:county_id": "", "ele": "", "gnis:created": "", "gnis:feature_id": "", "addr:housenumber": "108", "addr:city": "Chesapeake", "addr:postcode": "23322", "addr:state": "VA", "alt_name": "", "addr:street": "Kegman Road W Ste 102", "gnis:county_name": "" }, "geometry": { "type": "Point", "coordinates": [ 1658322.35837, -216642.40386 ] } },
{ "type": "Feature", "properties": { "full_id": "n5910885664", "osm_id": "5910885664", "osm_type": "node", "sport": "weightlifting;crossfit", "name": "Mathuin Barbell", "leisure": "sports_centre", "building": "", "gnis:state_id": "", "gnis:county_id": "", "ele": "", "gnis:created": "", "gnis:feature_id": "", "addr:housenumber": "1135", "addr:city": "Deptford", "addr:postcode": "08096", "addr:state": "NJ", "alt_name": "", "addr:street": "Hurffville Rd Ste 7", "gnis:county_name": "" }, "geometry": { "type": "Point", "coordinates": [ 1671559.62358, 165773.5506 ] } },
{ "type": "Feature", "properties": { "full_id": "n596729022", "osm_id": "596729022", "osm_type": "node", "sport": "weightlifting;crossfit", "name": "Pivotal Weightlifting Club", "leisure": "sports_centre", "building": "", "gnis:state_id": "", "gnis:county_id": "", "ele": "", "gnis:created": "", "gnis:feature_id": "", "addr:housenumber": "10223", "addr:city": "Santee", "addr:postcode": "92071", "addr:state": "CA", "alt_name": "", "addr:street": "Prospect Avenue", "gnis:county_name": "" }, "geometry": { "type": "Point", "coordinates": [ -1856765.85816, -634492.24823 ] } },
{ "type": "Feature", "properties": { "full_id": "n596831336", "osm_id": "596831336", "osm_type": "node", "sport": "weightlifting;crossfit", "name": "Nemesis Weightlifting", "leisure": "sports_centre", "building": "", "gnis:state_id": "", "gnis:county_id": "", "ele": "", "gnis:created": "", "gnis:feature_id": "", "addr:housenumber": "4250", "addr:city": "San Diego", "addr:postcode": "92111", "addr:state": "CA", "alt_name": "", "addr:street": "Pepsi Drive", "gnis:county_name": "" }, "geometry": { "type": "Point", "coordinates": [ -1872591.93164, -632287.85578 ] } },
{ "type": "Feature", "properties": { "full_id": "n5910276723", "osm_id": "5910276723", "osm_type": "node", "sport": "weightlifting;crossfit", "name": "Average Broz Gymnasium", "leisure": "sports_centre", "building": "", "gnis:state_id": "", "gnis:county_id": "", "ele": "", "gnis:created": "", "gnis:feature_id": "", "addr:housenumber": "9155", "addr:city": "Las Vegas", "addr:postcode": "89123", "addr:state": "NV", "alt_name": "", "addr:street": "Las Vegas Blvd", "gnis:county_name": "" }, "geometry": { "type": "Point", "coordinates": [ -1624895.54748, -302988.74641 ] } },
{ "type": "Feature", "properties": { "full_id": "n5910276724", "osm_id": "5910276724", "osm_type": "node", "sport": "weightlifting", "name": "Bakersfield Barbell Club", "leisure": "sports_centre", "building": "", "gnis:state_id": "", "gnis:county_id": "", "ele": "", "gnis:created": "", "gnis:feature_id": "", "addr:housenumber": "15328", "addr:city": "Bakersfield", "addr:postcode": "93314", "addr:state": "CA", "alt_name": "", "addr:street": "Lake Berryessa", "gnis:county_name": "" }, "geometry": { "type": "Point", "coordinates": [ -1975712.68075, -300813.54469 ] } },
{ "type": "Feature", "properties": { "full_id": "n5910276725", "osm_id": "5910276725", "osm_type": "node", "sport": "weightlifting;crossfit", "name": "Barbarian Barbell Club", "leisure": "sports_centre", "building": "", "gnis:state_id": "", "gnis:county_id": "", "ele": "", "gnis:created": "", "gnis:feature_id": "", "addr:housenumber": "6117", "addr:city": "tarzana", "addr:postcode": "91335", "addr:state": "ca", "alt_name": "", "addr:street": "Reseda Boulevard", "gnis:county_name": "" }, "geometry": { "type": "Point", "coordinates": [ -1955374.38267, -449786.25885 ] } },
{ "type": "Feature", "properties": { "full_id": "n5910361049", "osm_id": "5910361049", "osm_type": "node", "sport": "weightlifting;crossfit", "name": "Long Beach Weightlifting", "leisure": "sports_centre", "building": "", "gnis:state_id": "", "gnis:county_id": "", "ele": "", "gnis:created": "", "gnis:feature_id": "", "addr:housenumber": "3960", "addr:city": "Long Beach", "addr:postcode": "90808", "addr:state": "CA", "alt_name": "", "addr:street": "Studebaker Road", "gnis:county_name": "" }, "geometry": { "type": "Point", "coordinates": [ -1927582.97468, -498669.99562 ] } },
{ "type": "Feature", "properties": { "full_id": "n5910361051", "osm_id": "5910361051", "osm_type": "node", "sport": "weightlifting;crossfit", "name": "Team Divergent", "leisure": "sports_centre", "building": "", "gnis:state_id": "", "gnis:county_id": "", "ele": "", "gnis:created": "", "gnis:feature_id": "", "addr:housenumber": "1363", "addr:city": "San Francisco", "addr:postcode": "94122", "addr:state": "CA", "alt_name": "", "addr:street": "28th Avenue", "gnis:county_name": "" }, "geometry": { "type": "Point", "coordinates": [ -2174117.39062, 42086.06638 ] } },
{ "type": "Feature", "properties": { "full_id": "n5910361053", "osm_id": "5910361053", "osm_type": "node", "sport": "weightlifting;crossfit", "name": "Zion Barbell", "leisure": "sports_centre", "building": "", "gnis:state_id": "", "gnis:county_id": "", "ele": "", "gnis:created": "", "gnis:feature_id": "", "addr:housenumber": "520", "addr:city": "St. George", "addr:postcode": "84790", "addr:state": "UT", "alt_name": "", "addr:street": "North 3050 East", "gnis:county_name": "" }, "geometry": { "type": "Point", "coordinates": [ -1462616.14743, -203819.7231 ] } },
{ "type": "Feature", "properties": { "full_id": "n5910361065", "osm_id": "5910361065", "osm_type": "node", "sport": "weightlifting;crossfit", "name": "Hassle Free Barbell Club", "leisure": "sports_centre", "building": "", "gnis:state_id": "", "gnis:county_id": "", "ele": "", "gnis:created": "", "gnis:feature_id": "", "addr:housenumber": "16", "addr:city": "East Palo Alto", "addr:postcode": "94303", "addr:state": "CA", "alt_name": "", "addr:street": "Kirkwood Court", "gnis:county_name": "" }, "geometry": { "type": "Point", "coordinates": [ -2156040.5554, 1793.68212 ] } },
{ "type": "Feature", "properties": { "full_id": "n5910361068", "osm_id": "5910361068", "osm_type": "node", "sport": "weightlifting;crossfit", "name": "Las Vegas Barbell", "leisure": "sports_centre", "building": "", "gnis:state_id": "", "gnis:county_id": "", "ele": "", "gnis:created": "", "gnis:feature_id": "", "addr:housenumber": "4020", "addr:city": "Las Vegas", "addr:postcode": "89118", "addr:state": "NV", "alt_name": "", "addr:street": "W Ali Baba Ln Suite C", "gnis:county_name": "" }, "geometry": { "type": "Point", "coordinates": [ -1624537.01424, -294211.69141 ] } },
{ "type": "Feature", "properties": { "full_id": "n5910361071", "osm_id": "5910361071", "osm_type": "node", "sport": "weightlifting;crossfit", "name": "One More Kilo Barbell Club", "leisure": "sports_centre", "building": "", "gnis:state_id": "", "gnis:county_id": "", "ele": "", "gnis:created": "", "gnis:feature_id": "", "addr:housenumber": "151 ", "addr:city": "City of Industry", "addr:postcode": "91745", "addr:state": "CA", "alt_name": "", "addr:street": "S Hacienda Blvd A", "gnis:county_name": "" }, "geometry": { "type": "Point", "coordinates": [ -1910384.97124, -479670.08372 ] } },
{ "type": "Feature", "properties": { "full_id": "n5910361073", "osm_id": "5910361073", "osm_type": "node", "sport": "weightlifting;crossfit", "name": "Sage's Gym", "leisure": "sports_centre", "building": "", "gnis:state_id": "", "gnis:county_id": "", "ele": "", "gnis:created": "", "gnis:feature_id": "", "addr:housenumber": "2880", "addr:city": "SanDiego", "addr:postcode": "92106", "addr:state": "CA", "alt_name": "", "addr:street": "Belknap Way", "gnis:county_name": "" }, "geometry": { "type": "Point", "coordinates": [ -1880795.91981, -640936.92895 ] } },
{ "type": "Feature", "properties": { "full_id": "n5910379501", "osm_id": "5910379501", "osm_type": "node", "sport": "weightlifting;crossfit", "name": "Signature Athleticss", "leisure": "sports_centre", "building": "", "gnis:state_id": "", "gnis:county_id": "", "ele": "", "gnis:created": "", "gnis:feature_id": "", "addr:housenumber": "7830", "addr:city": "Pico Rivera", "addr:postcode": "90660", "addr:state": "CA", "alt_name": "", "addr:street": "Rosemead Blvd", "gnis:county_name": "" }, "geometry": { "type": "Point", "coordinates": [ -1924304.82864, -482566.00789 ] } },
{ "type": "Feature", "properties": { "full_id": "n5910379503", "osm_id": "5910379503", "osm_type": "node", "sport": "weightlifting;crossfit", "name": "Standard Strength", "leisure": "sports_centre", "building": "", "gnis:state_id": "", "gnis:county_id": "", "ele": "", "gnis:created": "", "gnis:feature_id": "", "addr:housenumber": "2096", "addr:city": "Campbell", "addr:postcode": "95008", "addr:state": "CA", "alt_name": "", "addr:street": "Winchester Blvd", "gnis:county_name": "" }, "geometry": { "type": "Point", "coordinates": [ -2146259.12592, -24021.79976 ] } },
{ "type": "Feature", "properties": { "full_id": "n5910442379", "osm_id": "5910442379", "osm_type": "node", "sport": "weightlifting;crossfit", "name": "Blade Method Barbell", "leisure": "sports_centre", "building": "", "gnis:state_id": "", "gnis:county_id": "", "ele": "", "gnis:created": "", "gnis:feature_id": "", "addr:housenumber": "1614", "addr:city": "Phoenix", "addr:postcode": "85085", "addr:state": "AZ", "alt_name": "", "addr:street": "W. Wispering Wind Dr", "gnis:county_name": "" }, "geometry": { "type": "Point", "coordinates": [ -1412214.58425, -618032.86598 ] } },
{ "type": "Feature", "properties": { "full_id": "n5910442381", "osm_id": "5910442381", "osm_type": "node", "sport": "weightlifting;crossfit", "name": "CFSR Barbell Club", "leisure": "sports_centre", "building": "", "gnis:state_id": "", "gnis:county_id": "", "ele": "", "gnis:created": "", "gnis:feature_id": "", "addr:housenumber": "570", "addr:city": "Redlands", "addr:postcode": "92373", "addr:state": "CA", "alt_name": "", "addr:street": "Nevada St, Ste N", "gnis:county_name": "" }, "geometry": { "type": "Point", "coordinates": [ -1845911.36151, -489982.39151 ] } },
{ "type": "Feature", "properties": { "full_id": "n5910442384", "osm_id": "5910442384", "osm_type": "node", "sport": "weightlifting;crossfit", "name": "Four Horsemen Strength and Conditioning", "leisure": "sports_centre", "building": "", "gnis:state_id": "", "gnis:county_id": "", "ele": "", "gnis:created": "", "gnis:feature_id": "", "addr:housenumber": "1101", "addr:city": "Fairfield", "addr:postcode": "94533", "addr:state": "CA", "alt_name": "", "addr:street": " Horizon Dr", "gnis:county_name": "" }, "geometry": { "type": "Point", "coordinates": [ -2119802.49158, 89208.70275 ] } },
{ "type": "Feature", "properties": { "full_id": "n5910442388", "osm_id": "5910442388", "osm_type": "node", "sport": "weightlifting;crossfit", "name": "Lift 6 for 6 Barbell", "leisure": "sports_centre", "building": "", "gnis:state_id": "", "gnis:county_id": "", "ele": "", "gnis:created": "", "gnis:feature_id": "", "addr:housenumber": "2054", "addr:city": "Mountain View", "addr:postcode": "94043", "addr:state": "CA", "alt_name": "", "addr:street": "Old Middlefield Way", "gnis:county_name": "" }, "geometry": { "type": "Point", "coordinates": [ -2153595.86652, -6180.59008 ] } },
{ "type": "Feature", "properties": { "full_id": "n5910442392", "osm_id": "5910442392", "osm_type": "node", "sport": "weightlifting;crossfit", "name": "Precision Barbell", "leisure": "sports_centre", "building": "", "gnis:state_id": "", "gnis:county_id": "", "ele": "", "gnis:created": "", "gnis:feature_id": "", "addr:housenumber": "28710 ", "addr:city": "Agoura Hills", "addr:postcode": "91301", "addr:state": "CA", "alt_name": "", "addr:street": "Canwood St Ste 105-107", "gnis:county_name": "" }, "geometry": { "type": "Point", "coordinates": [ -1974625.18996, -449443.08293 ] } },
{ "type": "Feature", "properties": { "full_id": "n5910474530", "osm_id": "5910474530", "osm_type": "node", "sport": "weightlifting", "name": "Barbell Ballistics Weightlifting", "leisure": "sports_centre", "building": "", "gnis:state_id": "", "gnis:county_id": "", "ele": "", "gnis:created": "", "gnis:feature_id": "", "addr:housenumber": "4174", "addr:city": "Riverside", "addr:postcode": "92503", "addr:state": "CA", "alt_name": "", "addr:street": "Overland St", "gnis:county_name": "" }, "geometry": { "type": "Point", "coordinates": [ -1868384.66001, -500140.00905 ] } },
{ "type": "Feature", "properties": { "full_id": "n5910474531", "osm_id": "5910474531", "osm_type": "node", "sport": "weightlifting;crossfit", "name": "Barbells for Boobs Academy", "leisure": "sports_centre", "building": "", "gnis:state_id": "", "gnis:county_id": "", "ele": "", "gnis:created": "", "gnis:feature_id": "", "addr:housenumber": "1006", "addr:city": "Santa Ana", "addr:postcode": "92701", "addr:state": "CA", "alt_name": "", "addr:street": "E Chesnut Ave", "gnis:county_name": "" }, "geometry": { "type": "Point", "coordinates": [ -1909055.04844, -513548.94845 ] } },
{ "type": "Feature", "properties": { "full_id": "n5910474534", "osm_id": "5910474534", "osm_type": "node", "sport": "weightlifting;crossfit", "name": "Waxman's Gym", "leisure": "sports_centre", "building": "", "gnis:state_id": "", "gnis:county_id": "", "ele": "", "gnis:created": "", "gnis:feature_id": "", "addr:housenumber": "15701", "addr:city": "Lawndale", "addr:postcode": "90260", "addr:state": "CA", "alt_name": "", "addr:street": "Condon Ave #B4", "gnis:county_name": "" }, "geometry": { "type": "Point", "coordinates": [ -1948306.49965, -486622.49887 ] } },
{ "type": "Feature", "properties": { "full_id": "n5910474535", "osm_id": "5910474535", "osm_type": "node", "sport": "weightlifting;crossfit", "name": "Weber State Barbell Club", "leisure": "sports_centre", "building": "", "gnis:state_id": "", "gnis:county_id": "", "ele": "", "gnis:created": "", "gnis:feature_id": "", "addr:housenumber": "2801", "addr:city": "Ogden", "addr:postcode": "84408", "addr:state": "UT", "alt_name": "", "addr:street": "University Circle", "gnis:county_name": "" }, "geometry": { "type": "Point", "coordinates": [ -1252234.04544, 246431.42361 ] } },
{ "type": "Feature", "properties": { "full_id": "n5910474540", "osm_id": "5910474540", "osm_type": "node", "sport": "weightlifting;crossfit", "name": "Berkeley Weightlifting", "leisure": "sports_centre", "building": "", "gnis:state_id": "", "gnis:county_id": "", "ele": "", "gnis:created": "", "gnis:feature_id": "", "addr:housenumber": "2009", "addr:city": "Berkely", "addr:postcode": "94702", "addr:state": "CA", "alt_name": "", "addr:street": "San Pablo Ave", "gnis:county_name": "" }, "geometry": { "type": "Point", "coordinates": [ -2155069.25576, 49711.14353 ] } },
{ "type": "Feature", "properties": { "full_id": "n5910474547", "osm_id": "5910474547", "osm_type": "node", "sport": "weightlifting;crossfit", "name": "Rep Max Performance", "leisure": "sports_centre", "building": "", "gnis:state_id": "", "gnis:county_id": "", "ele": "", "gnis:created": "", "gnis:feature_id": "", "addr:housenumber": "410", "addr:city": "Orange", "addr:postcode": "92865", "addr:state": "CA", "alt_name": "", "addr:street": "W Grove Ave", "gnis:county_name": "" }, "geometry": { "type": "Point", "coordinates": [ -1907062.31834, -504557.29515 ] } },
{ "type": "Feature", "properties": { "full_id": "n5910474548", "osm_id": "5910474548", "osm_type": "node", "sport": "weightlifting;crossfit", "name": "Resident Barbell Club", "leisure": "sports_centre", "building": "", "gnis:state_id": "", "gnis:county_id": "", "ele": "", "gnis:created": "", "gnis:feature_id": "", "addr:housenumber": "523", "addr:city": "Modesto", "addr:postcode": "95356", "addr:state": "CA", "alt_name": "", "addr:street": "Glass Ln #A-4", "gnis:county_name": "" }, "geometry": { "type": "Point", "coordinates": [ -2056796.76932, 2560.19824 ] } },
{ "type": "Feature", "properties": { "full_id": "n5910474550", "osm_id": "5910474550", "osm_type": "node", "sport": "weightlifting;crossfit", "name": "Calavera Barbell", "leisure": "sports_centre", "building": "", "gnis:state_id": "", "gnis:county_id": "", "ele": "", "gnis:created": "", "gnis:feature_id": "", "addr:housenumber": "8880", "addr:city": "Reno", "addr:postcode": "89521", "addr:state": "NV", "alt_name": "", "addr:street": "Double Diamond Pkwy Suite B", "gnis:county_name": "" }, "geometry": { "type": "Point", "coordinates": [ -1905257.07791, 175276.3679 ] } },
{ "type": "Feature", "properties": { "full_id": "n5910474551", "osm_id": "5910474551", "osm_type": "node", "sport": "weightlifting;crossfit", "name": "California Strength", "leisure": "sports_centre", "building": "", "gnis:state_id": "", "gnis:county_id": "", "ele": "", "gnis:created": "", "gnis:feature_id": "", "addr:housenumber": "2021", "addr:city": "San Ramon", "addr:postcode": "94583", "addr:state": "CA", "alt_name": "", "addr:street": "Omega Rd", "gnis:county_name": "" }, "geometry": { "type": "Point", "coordinates": [ -2133063.10486, 33086.85012 ] } },
{ "type": "Feature", "properties": { "full_id": "n5910524289", "osm_id": "5910524289", "osm_type": "node", "sport": "weightlifting;crossfit", "name": "Team Guest List", "leisure": "sports_centre", "building": "", "gnis:state_id": "", "gnis:county_id": "", "ele": "", "gnis:created": "", "gnis:feature_id": "", "addr:housenumber": "10016", "addr:city": "Roseville", "addr:postcode": "95678", "addr:state": "CA", "alt_name": "", "addr:street": "Douglas Blvd", "gnis:county_name": "" }, "geometry": { "type": "Point", "coordinates": [ -2036761.5503, 123787.08399 ] } },
{ "type": "Feature", "properties": { "full_id": "n5910524292", "osm_id": "5910524292", "osm_type": "node", "sport": "weightlifting;crossfit", "name": "Tribe Barbell Club", "leisure": "sports_centre", "building": "", "gnis:state_id": "", "gnis:county_id": "", "ele": "", "gnis:created": "", "gnis:feature_id": "", "addr:housenumber": "10712", "addr:city": "Los Alamitos", "addr:postcode": "90720", "addr:state": "CA", "alt_name": "", "addr:street": "Reagan St B", "gnis:county_name": "" }, "geometry": { "type": "Point", "coordinates": [ -1925594.37262, -501798.1068 ] } },
{ "type": "Feature", "properties": { "full_id": "n5910524293", "osm_id": "5910524293", "osm_type": "node", "sport": "weightlifting;crossfit", "name": "Trojan Weightlifting", "leisure": "sports_centre", "building": "", "gnis:state_id": "", "gnis:county_id": "", "ele": "", "gnis:created": "", "gnis:feature_id": "", "addr:housenumber": "431", "addr:city": "Los Angeles", "addr:postcode": "90013", "addr:state": "CA", "alt_name": "", "addr:street": "South Hewitt St", "gnis:county_name": "" }, "geometry": { "type": "Point", "coordinates": [ -1933511.99476, -471711.17765 ] } },
{ "type": "Feature", "properties": { "full_id": "n5910524296", "osm_id": "5910524296", "osm_type": "node", "sport": "weightlifting;crossfit", "name": "Boise Barbell", "leisure": "sports_centre", "building": "", "gnis:state_id": "", "gnis:county_id": "", "ele": "", "gnis:created": "", "gnis:feature_id": "", "addr:housenumber": "7646", "addr:city": "Boise", "addr:postcode": "83709", "addr:state": "ID", "alt_name": "", "addr:street": "Lemhi St #8", "gnis:county_name": "" }, "geometry": { "type": "Point", "coordinates": [ -1527632.49915, 587337.08729 ] } },
{ "type": "Feature", "properties": { "full_id": "n5910524297", "osm_id": "5910524297", "osm_type": "node", "sport": "weightlifting;crossfit", "name": "BSCF Weightlifting", "leisure": "sports_centre", "building": "", "gnis:state_id": "", "gnis:county_id": "", "ele": "", "gnis:created": "", "gnis:feature_id": "", "addr:housenumber": "2646", "addr:city": "Ventura ", "addr:postcode": "93003", "addr:state": "CA", "alt_name": "", "addr:street": "Palma Unit 310", "gnis:county_name": "" }, "geometry": { "type": "Point", "coordinates": [ -2012125.15356, -427752.1383 ] } },
{ "type": "Feature", "properties": { "full_id": "n5910524301", "osm_id": "5910524301", "osm_type": "node", "sport": "weightlifting;crossfit", "name": "Delta Weightlifting", "leisure": "sports_centre", "building": "", "gnis:state_id": "", "gnis:county_id": "", "ele": "", "gnis:created": "", "gnis:feature_id": "", "addr:housenumber": "8160", "addr:city": "Sacramento", "addr:postcode": "95826", "addr:state": "CA", "alt_name": "", "addr:street": "14th Ave, Unit B", "gnis:county_name": "" }, "geometry": { "type": "Point", "coordinates": [ -2063391.82929, 105986.72242 ] } },
{ "type": "Feature", "properties": { "full_id": "n5910524307", "osm_id": "5910524307", "osm_type": "node", "sport": "weightlifting;crossfit", "name": "Hidden Valley Weightlifting", "leisure": "sports_centre", "building": "", "gnis:state_id": "", "gnis:county_id": "", "ele": "", "gnis:created": "", "gnis:feature_id": "", "addr:housenumber": "1219", "addr:city": "Yuma ", "addr:postcode": "85365", "addr:state": "AZ", "alt_name": "", "addr:street": "E 21st St Ste D", "gnis:county_name": "" }, "geometry": { "type": "Point", "coordinates": [ -1653349.10113, -694415.00798 ] } },
{ "type": "Feature", "properties": { "full_id": "n5910524309", "osm_id": "5910524309", "osm_type": "node", "sport": "weightlifting;crossfit", "name": "Iron Brothers", "leisure": "sports_centre", "building": "", "gnis:state_id": "", "gnis:county_id": "", "ele": "", "gnis:created": "", "gnis:feature_id": "", "addr:housenumber": "2200", "addr:city": "Paso Robles", "addr:postcode": "93446", "addr:state": "CA", "alt_name": "", "addr:street": "Pepper Tree Way", "gnis:county_name": "" }, "geometry": { "type": "Point", "coordinates": [ -2082731.49366, -243076.29276 ] } },
{ "type": "Feature", "properties": { "full_id": "n5910583818", "osm_id": "5910583818", "osm_type": "node", "sport": "weightlifting;crossfit", "name": "Kings of Weightlifting", "leisure": "sports_centre", "building": "", "gnis:state_id": "", "gnis:county_id": "", "ele": "", "gnis:created": "", "gnis:feature_id": "", "addr:housenumber": "7901", "addr:city": "Los Angeles", "addr:postcode": "90001", "addr:state": "CA", "alt_name": "", "addr:street": "Compton Ave", "gnis:county_name": "" }, "geometry": { "type": "Point", "coordinates": [ -1936620.2678, -480010.89018 ] } },
{ "type": "Feature", "properties": { "full_id": "n5910583821", "osm_id": "5910583821", "osm_type": "node", "sport": "weightlifting;crossfit", "name": "Menlo College Weightlifting", "leisure": "sports_centre", "building": "", "gnis:state_id": "", "gnis:county_id": "", "ele": "", "gnis:created": "", "gnis:feature_id": "", "addr:housenumber": "1000 ", "addr:city": "Atherton", "addr:postcode": "94027", "addr:state": "CA", "alt_name": "", "addr:street": "El Camino Real", "gnis:county_name": "" }, "geometry": { "type": "Point", "coordinates": [ -2160346.04884, 757.46407 ] } },
{ "type": "Feature", "properties": { "full_id": "n5910583824", "osm_id": "5910583824", "osm_type": "node", "sport": "weightlifting;crossfit", "name": "Occam Athletics", "leisure": "sports_centre", "building": "", "gnis:state_id": "", "gnis:county_id": "", "ele": "", "gnis:created": "", "gnis:feature_id": "", "addr:housenumber": "1809", "addr:city": "Sacramento", "addr:postcode": "95816", "addr:state": "CA", "alt_name": "", "addr:street": "23rd St", "gnis:county_name": "" }, "geometry": { "type": "Point", "coordinates": [ -2068334.41446, 110678.99259 ] } },
{ "type": "Feature", "properties": { "full_id": "n5910583825", "osm_id": "5910583825", "osm_type": "node", "sport": "weightlifting;crossfit", "name": "One World Barbell Club", "leisure": "sports_centre", "building": "", "gnis:state_id": "", "gnis:county_id": "", "ele": "", "gnis:created": "", "gnis:feature_id": "", "addr:housenumber": "33415", "addr:city": "Union City", "addr:postcode": "94587", "addr:state": "CA", "alt_name": "", "addr:street": "Western Ave", "gnis:county_name": "" }, "geometry": { "type": "Point", "coordinates": [ -2143117.49167, 12941.82803 ] } },
{ "type": "Feature", "properties": { "full_id": "n5910583830", "osm_id": "5910583830", "osm_type": "node", "sport": "weightlifting;crossfit", "name": "Vehement Elite Athletics", "leisure": "sports_centre", "building": "", "gnis:state_id": "", "gnis:county_id": "", "ele": "", "gnis:created": "", "gnis:feature_id": "", "addr:housenumber": "3553 ", "addr:city": "Long Beach", "addr:postcode": "90807", "addr:state": "CA", "alt_name": "", "addr:street": "Atlantic Ave Unit 1608", "gnis:county_name": "" }, "geometry": { "type": "Point", "coordinates": [ -1935216.46894, -497822.59989 ] } },
{ "type": "Feature", "properties": { "full_id": "n5910583842", "osm_id": "5910583842", "osm_type": "node", "sport": "weightlifting;crossfit", "name": "Super Weightlifting", "leisure": "sports_centre", "building": "", "gnis:state_id": "", "gnis:county_id": "", "ele": "", "gnis:created": "", "gnis:feature_id": "", "addr:housenumber": "21414 ", "addr:city": "Perris", "addr:postcode": "92570", "addr:state": "CA", "alt_name": "", "addr:street": "Harvill Ave Unit 4", "gnis:county_name": "" }, "geometry": { "type": "Point", "coordinates": [ -1854516.60867, -518076.98898 ] } },
{ "type": "Feature", "properties": { "full_id": "n5910620563", "osm_id": "5910620563", "osm_type": "node", "sport": "weightlifting;crossfit", "name": "Brickwall Barbell Club", "leisure": "sports_centre", "building": "", "gnis:state_id": "", "gnis:county_id": "", "ele": "", "gnis:created": "", "gnis:feature_id": "", "addr:housenumber": "1435", "addr:city": "Salt Lake City", "addr:postcode": "84121", "addr:state": "UT", "alt_name": "", "addr:street": "S State St", "gnis:county_name": "" }, "geometry": { "type": "Point", "coordinates": [ -1256488.3805, 192713.13239 ] } },
{ "type": "Feature", "properties": { "full_id": "n5910620566", "osm_id": "5910620566", "osm_type": "node", "sport": "weightlifting;crossfit", "name": "Chikara Weightlifting", "leisure": "sports_centre", "building": "", "gnis:state_id": "", "gnis:county_id": "", "ele": "", "gnis:created": "", "gnis:feature_id": "", "addr:housenumber": "11149", "addr:city": "Whittier ", "addr:postcode": "90603", "addr:state": "CA", "alt_name": "", "addr:street": "First Ave", "gnis:county_name": "" }, "geometry": { "type": "Point", "coordinates": [ -1915241.75196, -489386.33835 ] } },
{ "type": "Feature", "properties": { "full_id": "n5910620568", "osm_id": "5910620568", "osm_type": "node", "sport": "weightlifting;crossfit", "name": "Divergent Weightlifting", "leisure": "sports_centre", "building": "", "gnis:state_id": "", "gnis:county_id": "", "ele": "", "gnis:created": "", "gnis:feature_id": "", "addr:housenumber": "1101 ", "addr:city": "South Pasadena", "addr:postcode": "91030", "addr:state": "CA", "alt_name": "", "addr:street": "Mission St", "gnis:county_name": "" }, "geometry": { "type": "Point", "coordinates": [ -1924654.62368, -465061.4696 ] } },
{ "type": "Feature", "properties": { "full_id": "n5910620569", "osm_id": "5910620569", "osm_type": "node", "sport": "weightlifting;crossfit", "name": "Donny Shankle Weightlifting", "leisure": "sports_centre", "building": "", "gnis:state_id": "", "gnis:county_id": "", "ele": "", "gnis:created": "", "gnis:feature_id": "", "addr:housenumber": "1345", "addr:city": "San Jose", "addr:postcode": "95126", "addr:state": "CA", "alt_name": "", "addr:street": "The Almeda", "gnis:county_name": "" }, "geometry": { "type": "Point", "coordinates": [ -2141872.44624, -19542.06162 ] } },
{ "type": "Feature", "properties": { "full_id": "n5910620570", "osm_id": "5910620570", "osm_type": "node", "sport": "weightlifting;crossfit", "name": "Double Barrel Weightlifting", "leisure": "sports_centre", "building": "", "gnis:state_id": "", "gnis:county_id": "", "ele": "", "gnis:created": "", "gnis:feature_id": "", "addr:housenumber": "456 ", "addr:city": "San Marcos", "addr:postcode": "92069", "addr:state": "CA", "alt_name": "", "addr:street": "E Mission St", "gnis:county_name": "" }, "geometry": { "type": "Point", "coordinates": [ -1864170.6843, -595333.06365 ] } },
{ "type": "Feature", "properties": { "full_id": "n5910620575", "osm_id": "5910620575", "osm_type": "node", "sport": "weightlifting;crossfit", "name": "Offshore CrossFit", "leisure": "sports_centre", "building": "", "gnis:state_id": "", "gnis:county_id": "", "ele": "", "gnis:created": "", "gnis:feature_id": "", "addr:housenumber": "3135", "addr:city": "Carlsbad", "addr:postcode": "92008", "addr:state": "CA", "alt_name": "", "addr:street": "Tyler St", "gnis:county_name": "" }, "geometry": { "type": "Point", "coordinates": [ -1880629.00625, -589953.69972 ] } },
{ "type": "Feature", "properties": { "full_id": "n5910620576", "osm_id": "5910620576", "osm_type": "node", "sport": "weightlifting;crossfit", "name": "Olympia Weightlifting Center", "leisure": "sports_centre", "building": "", "gnis:state_id": "", "gnis:county_id": "", "ele": "", "gnis:created": "", "gnis:feature_id": "", "addr:housenumber": "2051", "addr:city": "Chandler ", "addr:postcode": "85225", "addr:state": "AZ", "alt_name": "", "addr:street": "N Arizona Ave", "gnis:county_name": "" }, "geometry": { "type": "Point", "coordinates": [ -1397232.6513, -664775.75861 ] } },
{ "type": "Feature", "properties": { "full_id": "n5910620578", "osm_id": "5910620578", "osm_type": "node", "sport": "weightlifting;crossfit", "name": "Speed Power Strength", "leisure": "sports_centre", "building": "", "gnis:state_id": "", "gnis:county_id": "", "ele": "", "gnis:created": "", "gnis:feature_id": "", "addr:housenumber": "2140", "addr:city": "Oakland", "addr:postcode": "94606", "addr:state": "CA", "alt_name": "", "addr:street": "Livingston", "gnis:county_name": "" }, "geometry": { "type": "Point", "coordinates": [ -2153798.70627, 38653.49872 ] } },
{ "type": "Feature", "properties": { "full_id": "n5910620584", "osm_id": "5910620584", "osm_type": "node", "sport": "weightlifting;crossfit", "name": "Boombox Barbell Weightlifting Club", "leisure": "sports_centre", "building": "", "gnis:state_id": "", "gnis:county_id": "", "ele": "", "gnis:created": "", "gnis:feature_id": "", "addr:housenumber": "28671", "addr:city": "Temecula", "addr:postcode": "92590", "addr:state": "CA", "alt_name": "", "addr:street": "Calle Cortez", "gnis:county_name": "" }, "geometry": { "type": "Point", "coordinates": [ -1855127.10162, -554124.27426 ] } },
{ "type": "Feature", "properties": { "full_id": "n5910620885", "osm_id": "5910620885", "osm_type": "node", "sport": "weightlifting;crossfit", "name": "Broken Record Barbell", "leisure": "sports_centre", "building": "", "gnis:state_id": "", "gnis:county_id": "", "ele": "", "gnis:created": "", "gnis:feature_id": "", "addr:housenumber": "11585", "addr:city": "Draper ", "addr:postcode": "84020", "addr:state": "UT", "alt_name": "", "addr:street": "S State St", "gnis:county_name": "" }, "geometry": { "type": "Point", "coordinates": [ -1260643.04056, 169751.31975 ] } },
{ "type": "Feature", "properties": { "full_id": "n5910620889", "osm_id": "5910620889", "osm_type": "node", "sport": "weightlifting;crossfit", "name": "Conqueror Weightlifting", "leisure": "sports_centre", "building": "", "gnis:state_id": "", "gnis:county_id": "", "ele": "", "gnis:created": "", "gnis:feature_id": "", "addr:housenumber": "1782", "addr:city": "Placentia", "addr:postcode": "92870", "addr:state": "CA", "alt_name": "", "addr:street": "Pierce Ln", "gnis:county_name": "" }, "geometry": { "type": "Point", "coordinates": [ -1903294.7543, -499180.82269 ] } },
{ "type": "Feature", "properties": { "full_id": "n5910620890", "osm_id": "5910620890", "osm_type": "node", "sport": "weightlifting;crossfit", "name": "Crossfit Downey", "leisure": "sports_centre", "building": "", "gnis:state_id": "", "gnis:county_id": "", "ele": "", "gnis:created": "", "gnis:feature_id": "", "addr:housenumber": "8232 ", "addr:city": "Downey", "addr:postcode": "90241", "addr:state": "CA", "alt_name": "", "addr:street": "Firestone Blvd", "gnis:county_name": "" }, "geometry": { "type": "Point", "coordinates": [ -1927614.74972, -485370.25726 ] } },
{ "type": "Feature", "properties": { "full_id": "n5910620891", "osm_id": "5910620891", "osm_type": "node", "sport": "weightlifting;crossfit", "name": "First City Barbell", "leisure": "sports_centre", "building": "", "gnis:state_id": "", "gnis:county_id": "", "ele": "", "gnis:created": "", "gnis:feature_id": "", "addr:housenumber": "2700", "addr:city": "Montery", "addr:postcode": "93940", "addr:state": "CA", "alt_name": "", "addr:street": "Garden Rd", "gnis:county_name": "" }, "geometry": { "type": "Point", "coordinates": [ -2160398.60926, -105496.40997 ] } },
{ "type": "Feature", "properties": { "full_id": "n5910668482", "osm_id": "5910668482", "osm_type": "node", "sport": "weightlifting;crossfit", "name": "GB3 Athletics", "leisure": "sports_centre", "building": "", "gnis:state_id": "", "gnis:county_id": "", "ele": "", "gnis:created": "", "gnis:feature_id": "", "addr:housenumber": "1215", "addr:city": "San Marcos", "addr:postcode": "92069", "addr:state": "CA", "alt_name": "", "addr:street": "Armorlite Dr", "gnis:county_name": "" }, "geometry": { "type": "Point", "coordinates": [ -1867129.68204, -594508.68061 ] } },
{ "type": "Feature", "properties": { "full_id": "n5910669787", "osm_id": "5910669787", "osm_type": "node", "sport": "weightlifting;crossfit", "name": "Insurgent Weightlifting", "leisure": "sports_centre", "building": "", "gnis:state_id": "", "gnis:county_id": "", "ele": "", "gnis:created": "", "gnis:feature_id": "", "addr:housenumber": "2229 ", "addr:city": "West Covina", "addr:postcode": "91791", "addr:state": "CA", "alt_name": "", "addr:street": "E Garvey Ave N", "gnis:county_name": "" }, "geometry": { "type": "Point", "coordinates": [ -1903871.5585, -475029.7255 ] } },
{ "type": "Feature", "properties": { "full_id": "n5910669788", "osm_id": "5910669788", "osm_type": "node", "sport": "weightlifting;crossfit", "name": "Invictus Athletic", "leisure": "sports_centre", "building": "", "gnis:state_id": "", "gnis:county_id": "", "ele": "", "gnis:created": "", "gnis:feature_id": "", "addr:housenumber": "1401", "addr:city": "San Diego", "addr:postcode": "92101", "addr:state": "CA", "alt_name": "", "addr:street": "E Street", "gnis:county_name": "" }, "geometry": { "type": "Point", "coordinates": [ -1875102.08665, -644191.73115 ] } },
{ "type": "Feature", "properties": { "full_id": "n5910669789", "osm_id": "5910669789", "osm_type": "node", "sport": "weightlifting;crossfit", "name": "Iron Athlete", "leisure": "sports_centre", "building": "", "gnis:state_id": "", "gnis:county_id": "", "ele": "", "gnis:created": "", "gnis:feature_id": "", "addr:housenumber": "3875", "addr:city": "Chandler", "addr:postcode": "855226", "addr:state": "AZ", "alt_name": "", "addr:street": "W Ray Rd Ste 8", "gnis:county_name": "" }, "geometry": { "type": "Point", "coordinates": [ -1403715.16765, -665850.60023 ] } },
{ "type": "Feature", "properties": { "full_id": "n5910669790", "osm_id": "5910669790", "osm_type": "node", "sport": "weightlifting;crossfit", "name": "Coastline Strength and Conditioning", "leisure": "sports_centre", "building": "", "gnis:state_id": "", "gnis:county_id": "", "ele": "", "gnis:created": "", "gnis:feature_id": "", "addr:housenumber": "800", "addr:city": "Grover Beach", "addr:postcode": "934333", "addr:state": "CA", "alt_name": "", "addr:street": "Farroll Rd", "gnis:county_name": "" }, "geometry": { "type": "Point", "coordinates": [ -2104419.28956, -299514.92266 ] } },
{ "type": "Feature", "properties": { "full_id": "n5910669791", "osm_id": "5910669791", "osm_type": "node", "sport": "weightlifting;crossfit", "name": "Code 3 Athletics", "leisure": "sports_centre", "building": "", "gnis:state_id": "", "gnis:county_id": "", "ele": "", "gnis:created": "", "gnis:feature_id": "", "addr:housenumber": "15725", "addr:city": "Gardena", "addr:postcode": "90247", "addr:state": "CA", "alt_name": "", "addr:street": "S Vermont Ave", "gnis:county_name": "" }, "geometry": { "type": "Point", "coordinates": [ -1942559.51317, -488137.55559 ] } },
{ "type": "Feature", "properties": { "full_id": "n5910669792", "osm_id": "5910669792", "osm_type": "node", "sport": "weightlifting;crossfit", "name": "Crossfit San Jose", "leisure": "sports_centre", "building": "", "gnis:state_id": "", "gnis:county_id": "", "ele": "", "gnis:created": "", "gnis:feature_id": "", "addr:housenumber": "1610", "addr:city": "Campbell", "addr:postcode": "95008", "addr:state": "CA", "alt_name": "", "addr:street": "Dell Ave, Unit A", "gnis:county_name": "" }, "geometry": { "type": "Point", "coordinates": [ -2147512.28148, -26519.54488 ] } },
{ "type": "Feature", "properties": { "full_id": "n5910669794", "osm_id": "5910669794", "osm_type": "node", "sport": "weightlifting;crossfit", "name": "Crossfit San Leandro", "leisure": "sports_centre", "building": "", "gnis:state_id": "", "gnis:county_id": "", "ele": "", "gnis:created": "", "gnis:feature_id": "", "addr:housenumber": "2450", "addr:city": "San Leandro", "addr:postcode": "94577", "addr:state": "CA", "alt_name": "", "addr:street": "Alvarado St, Bldg 2", "gnis:county_name": "" }, "geometry": { "type": "Point", "coordinates": [ -2149192.82571, 28960.65605 ] } },
{ "type": "Feature", "properties": { "full_id": "n5910669800", "osm_id": "5910669800", "osm_type": "node", "sport": "weightlifting;crossfit", "name": "Fortius Weightlifting", "leisure": "sports_centre", "building": "", "gnis:state_id": "", "gnis:county_id": "", "ele": "", "gnis:created": "", "gnis:feature_id": "", "addr:housenumber": "1277", "addr:city": "San Diego", "addr:postcode": "92110", "addr:state": "CA", "alt_name": "", "addr:street": "Morena Blvd", "gnis:county_name": "" }, "geometry": { "type": "Point", "coordinates": [ -1877997.67157, -636734.23617 ] } },
{ "type": "Feature", "properties": { "full_id": "n5910751752", "osm_id": "5910751752", "osm_type": "node", "sport": "weightlifting;crossfit", "name": "The Sports Palace", "leisure": "sports_centre", "building": "", "gnis:state_id": "", "gnis:county_id": "", "ele": "", "gnis:created": "", "gnis:feature_id": "", "addr:housenumber": "387", "addr:city": "San Francisco", "addr:postcode": "94080", "addr:state": "CA", "alt_name": "", "addr:street": "Grand Ave", "gnis:county_name": "" }, "geometry": { "type": "Point", "coordinates": [ -2171597.76376, 28334.84599 ] } },
{ "type": "Feature", "properties": { "full_id": "n5910751757", "osm_id": "5910751757", "osm_type": "node", "sport": "weightlifting;crossfit", "name": "Valley CrossFit Barbell Club", "leisure": "sports_centre", "building": "", "gnis:state_id": "", "gnis:county_id": "", "ele": "", "gnis:created": "", "gnis:feature_id": "", "addr:housenumber": "6930", "addr:city": "Van Nuys", "addr:postcode": "91406", "addr:state": "CA", "alt_name": "", "addr:street": "Hayvenhurst Ave", "gnis:county_name": "" }, "geometry": { "type": "Point", "coordinates": [ -1951130.58979, -448977.54431 ] } },
{ "type": "Feature", "properties": { "full_id": "n5910751758", "osm_id": "5910751758", "osm_type": "node", "sport": "weightlifting", "name": "Venice Barbell Club", "leisure": "sports_centre", "building": "", "gnis:state_id": "", "gnis:county_id": "", "ele": "", "gnis:created": "", "gnis:feature_id": "", "addr:housenumber": "712", "addr:city": "Vence", "addr:postcode": "90291", "addr:state": "CA", "alt_name": "", "addr:street": "Lincoln Blvd", "gnis:county_name": "" }, "geometry": { "type": "Point", "coordinates": [ -1954180.89799, -471867.69483 ] } },
{ "type": "Feature", "properties": { "full_id": "n5910751764", "osm_id": "5910751764", "osm_type": "node", "sport": "weightlifting;powerlifting;crossfit", "name": "Team Juggernaut", "leisure": "sports_centre", "building": "", "gnis:state_id": "", "gnis:county_id": "", "ele": "", "gnis:created": "", "gnis:feature_id": "", "addr:housenumber": "28062", "addr:city": "Laguna Nigel", "addr:postcode": "92677", "addr:state": "CA", "alt_name": "", "addr:street": "Forbes Rd", "gnis:county_name": "" }, "geometry": { "type": "Point", "coordinates": [ -1898494.26818, -538380.99436 ] } },
{ "type": "Feature", "properties": { "full_id": "n5910751766", "osm_id": "5910751766", "osm_type": "node", "sport": "weightlifting;crossfit", "name": "Team Mini Fridge", "leisure": "sports_centre", "building": "", "gnis:state_id": "", "gnis:county_id": "", "ele": "", "gnis:created": "", "gnis:feature_id": "", "addr:housenumber": "9725", "addr:city": "Chastworth", "addr:postcode": "91311", "addr:state": "CA", "alt_name": "", "addr:street": "Variel Ave", "gnis:county_name": "" }, "geometry": { "type": "Point", "coordinates": [ -1958391.63891, -441134.57886 ] } },
{ "type": "Feature", "properties": { "full_id": "n5910751768", "osm_id": "5910751768", "osm_type": "node", "sport": "weightlifting;crossfit", "name": "Team PR or ER", "leisure": "sports_centre", "building": "", "gnis:state_id": "", "gnis:county_id": "", "ele": "", "gnis:created": "", "gnis:feature_id": "", "addr:housenumber": "4142", "addr:city": "San Jose", "addr:postcode": "95121", "addr:state": "CA", "alt_name": "", "addr:street": "Yerba Buena Ave", "gnis:county_name": "" }, "geometry": { "type": "Point", "coordinates": [ -2132141.93048, -25770.71669 ] } },
{ "type": "Feature", "properties": { "full_id": "n5910751769", "osm_id": "5910751769", "osm_type": "node", "sport": "weightlifting;crossfit", "name": "Team Praxis", "leisure": "sports_centre", "building": "", "gnis:state_id": "", "gnis:county_id": "", "ele": "", "gnis:created": "", "gnis:feature_id": "", "addr:housenumber": "2184", "addr:city": "South Jordan", "addr:postcode": "84095", "addr:state": "UT", "alt_name": "", "addr:street": "West Amber Blossom Way", "gnis:county_name": "" }, "geometry": { "type": "Point", "coordinates": [ -1264758.71611, 172862.02672 ] } },
{ "type": "Feature", "properties": { "full_id": "n5910751771", "osm_id": "5910751771", "osm_type": "node", "sport": "weightlifting;crossfit", "name": "Marin Heavy Athletics", "leisure": "sports_centre", "building": "", "gnis:state_id": "", "gnis:county_id": "", "ele": "", "gnis:created": "", "gnis:feature_id": "", "addr:housenumber": "1295", "addr:city": "San Rafael", "addr:postcode": "94901", "addr:state": "CA", "alt_name": "", "addr:street": "2nd St", "gnis:county_name": "" }, "geometry": { "type": "Point", "coordinates": [ -2170832.63045, 66742.25949 ] } },
{ "type": "Feature", "properties": { "full_id": "n5910751772", "osm_id": "5910751772", "osm_type": "node", "sport": "weightlifting;crossfit", "name": "Hansen Barbell Club", "leisure": "sports_centre", "building": "", "gnis:state_id": "", "gnis:county_id": "", "ele": "", "gnis:created": "", "gnis:feature_id": "", "addr:housenumber": "1733", "addr:city": "Pocatello", "addr:postcode": "83201", "addr:state": "ID", "alt_name": "", "addr:street": "S 5th Avd", "gnis:county_name": "" }, "geometry": { "type": "Point", "coordinates": [ -1255862.76831, 446133.6033 ] } },
{ "type": "Feature", "properties": { "full_id": "n5910885640", "osm_id": "5910885640", "osm_type": "node", "sport": "weightlifting;crossfit", "name": "Hyperion Strong", "leisure": "sports_centre", "building": "", "gnis:state_id": "", "gnis:county_id": "", "ele": "", "gnis:created": "", "gnis:feature_id": "", "addr:housenumber": "12953", "addr:city": "Draper", "addr:postcode": "84020", "addr:state": "UT", "alt_name": "", "addr:street": "S Minuteman Dr", "gnis:county_name": "" }, "geometry": { "type": "Point", "coordinates": [ -1260966.74177, 166797.96503 ] } },
{ "type": "Feature", "properties": { "full_id": "n5910885645", "osm_id": "5910885645", "osm_type": "node", "sport": "weightlifting;crossfit", "name": "Proven Strength", "leisure": "sports_centre", "building": "", "gnis:state_id": "", "gnis:county_id": "", "ele": "", "gnis:created": "", "gnis:feature_id": "", "addr:housenumber": "777", "addr:city": "American Fork", "addr:postcode": "84003", "addr:state": "UT", "alt_name": "", "addr:street": "S Auto Mall Dr Ste 110", "gnis:county_name": "" }, "geometry": { "type": "Point", "coordinates": [ -1256235.89992, 147414.21618 ] } },
{ "type": "Feature", "properties": { "full_id": "n5910885648", "osm_id": "5910885648", "osm_type": "node", "sport": "weightlifting;crossfit", "name": "Performance One Weightlifting", "leisure": "sports_centre", "building": "", "gnis:state_id": "", "gnis:county_id": "", "ele": "", "gnis:created": "", "gnis:feature_id": "", "addr:housenumber": "916", "addr:city": "Mesa", "addr:postcode": "85204", "addr:state": "AZ", "alt_name": "", "addr:street": "E Baseline Rd Suite 130", "gnis:county_name": "" }, "geometry": { "type": "Point", "coordinates": [ -1394051.818, -660307.78001 ] } },
{ "type": "Feature", "properties": { "full_id": "n5910885656", "osm_id": "5910885656", "osm_type": "node", "sport": "weightlifting;crossfit", "name": "Oregon Strength Weightlifting", "leisure": "sports_centre", "building": "", "gnis:state_id": "", "gnis:county_id": "", "ele": "", "gnis:created": "", "gnis:feature_id": "", "addr:housenumber": "806", "addr:city": "Talent", "addr:postcode": "97540", "addr:state": "OR", "alt_name": "", "addr:street": "S Pacific Hwy E", "gnis:county_name": "" }, "geometry": { "type": "Point", "coordinates": [ -2049812.75281, 555692.95033 ] } },
{ "type": "Feature", "properties": { "full_id": "n5910885657", "osm_id": "5910885657", "osm_type": "node", "sport": "weightlifting;crossfit", "name": "Oxnard Barbell Club", "leisure": "sports_centre", "building": "", "gnis:state_id": "", "gnis:county_id": "", "ele": "", "gnis:created": "", "gnis:feature_id": "", "addr:housenumber": "2021", "addr:city": "Oxnard", "addr:postcode": "93030", "addr:state": "CA", "alt_name": "", "addr:street": "Eastman Ave Ste B", "gnis:county_name": "" }, "geometry": { "type": "Point", "coordinates": [ -2007362.53004, -434899.19653 ] } },
{ "type": "Feature", "properties": { "full_id": "n5910885660", "osm_id": "5910885660", "osm_type": "node", "sport": "weightlifting;crossfit", "name": "Leo's Den Weightlifting", "leisure": "sports_centre", "building": "", "gnis:state_id": "", "gnis:county_id": "", "ele": "", "gnis:created": "", "gnis:feature_id": "", "addr:housenumber": "35359", "addr:city": "Newark", "addr:postcode": "94560", "addr:state": "CA", "alt_name": "", "addr:street": "Fircrest St", "gnis:county_name": "" }, "geometry": { "type": "Point", "coordinates": [ -2146686.29996, 7628.28732 ] } },
{ "type": "Feature", "properties": { "full_id": "n5910885666", "osm_id": "5910885666", "osm_type": "node", "sport": "weightlifting;crossfit", "name": "Metro Tech High School Weightlifting", "leisure": "sports_centre", "building": "", "gnis:state_id": "", "gnis:county_id": "", "ele": "", "gnis:created": "", "gnis:feature_id": "", "addr:housenumber": "1900", "addr:city": "Phoenix", "addr:postcode": "85015", "addr:state": "AZ", "alt_name": "", "addr:street": "West Thomas Rd", "gnis:county_name": "" }, "geometry": { "type": "Point", "coordinates": [ -1417401.94376, -644282.15773 ] } },
{ "type": "Feature", "properties": { "full_id": "n5910885668", "osm_id": "5910885668", "osm_type": "node", "sport": "weightlifting;crossfit", "name": "Midtown Barbell", "leisure": "sports_centre", "building": "", "gnis:state_id": "", "gnis:county_id": "", "ele": "", "gnis:created": "", "gnis:feature_id": "", "addr:housenumber": "2010", "addr:city": "Sacramento", "addr:postcode": "95818", "addr:state": "CA", "alt_name": "", "addr:street": "3rd St", "gnis:county_name": "" }, "geometry": { "type": "Point", "coordinates": [ -2070426.38467, 111877.7893 ] } },
{ "type": "Feature", "properties": { "full_id": "n5910885669", "osm_id": "5910885669", "osm_type": "node", "sport": "weightlifting;crossfit", "name": "Myriad Barbell", "leisure": "sports_centre", "building": "", "gnis:state_id": "", "gnis:county_id": "", "ele": "", "gnis:created": "", "gnis:feature_id": "", "addr:housenumber": "1964", "addr:city": "Redlands", "addr:postcode": "92374", "addr:state": "CA", "alt_name": "", "addr:street": "Essex Ct", "gnis:county_name": "" }, "geometry": { "type": "Point", "coordinates": [ -1846197.3163, -489741.86043 ] } },
{ "type": "Feature", "properties": { "full_id": "n5910922975", "osm_id": "5910922975", "osm_type": "node", "sport": "weightlifting;crossfit", "name": "San Rafael Barbell", "leisure": "sports_centre", "building": "", "gnis:state_id": "", "gnis:county_id": "", "ele": "", "gnis:created": "", "gnis:feature_id": "", "addr:housenumber": "555", "addr:city": "San Rafael", "addr:postcode": "94901", "addr:state": "CA", "alt_name": "", "addr:street": "E Francisco Blvd Unit 19", "gnis:county_name": "" }, "geometry": { "type": "Point", "coordinates": [ -2169692.33852, 65885.6531 ] } },
{ "type": "Feature", "properties": { "full_id": "n5910922978", "osm_id": "5910922978", "osm_type": "node", "sport": "weightlifting;crossfit", "name": "Team Crossfit", "leisure": "sports_centre", "building": "", "gnis:state_id": "", "gnis:county_id": "", "ele": "", "gnis:created": "", "gnis:feature_id": "", "addr:housenumber": "205", "addr:city": "Monrovia", "addr:postcode": "91016", "addr:state": "CA", "alt_name": "", "addr:street": "W Duarte Rd", "gnis:county_name": "" }, "geometry": { "type": "Point", "coordinates": [ -1911257.7416, -466189.06828 ] } },
{ "type": "Feature", "properties": { "full_id": "n5910922982", "osm_id": "5910922982", "osm_type": "node", "sport": "weightlifting;crossfit", "name": "Sense Gym", "leisure": "sports_centre", "building": "", "gnis:state_id": "", "gnis:county_id": "", "ele": "", "gnis:created": "", "gnis:feature_id": "", "addr:housenumber": "3671", "addr:city": "Lakewood", "addr:postcode": "90712", "addr:state": "CA", "alt_name": "", "addr:street": "Industry Ave A4", "gnis:county_name": "" }, "geometry": { "type": "Point", "coordinates": [ -1933522.40975, -497951.04601 ] } },
{ "type": "Feature", "properties": { "full_id": "n5910922983", "osm_id": "5910922983", "osm_type": "node", "sport": "weightlifting;crossfit", "name": "Sevcik Strength", "leisure": "sports_centre", "building": "", "gnis:state_id": "", "gnis:county_id": "", "ele": "", "gnis:created": "", "gnis:feature_id": "", "addr:housenumber": "3016", "addr:city": "Medford", "addr:postcode": "97504", "addr:state": "OR", "alt_name": "", "addr:street": "Signature Ct", "gnis:county_name": "" }, "geometry": { "type": "Point", "coordinates": [ -2050567.05247, 567070.22913 ] } },
{ "type": "Feature", "properties": { "full_id": "n5910923586", "osm_id": "5910923586", "osm_type": "node", "sport": "weightlifting;crossfit", "name": "Southern California Weightlifting", "leisure": "sports_centre", "building": "", "gnis:state_id": "", "gnis:county_id": "", "ele": "", "gnis:created": "", "gnis:feature_id": "", "addr:housenumber": "3845", "addr:city": "Newport Beach", "addr:postcode": "92660", "addr:state": "CA", "alt_name": "", "addr:street": "Birch St", "gnis:county_name": "" }, "geometry": { "type": "Point", "coordinates": [ -1912590.9875, -522132.77138 ] } },
{ "type": "Feature", "properties": { "full_id": "n5910923591", "osm_id": "5910923591", "osm_type": "node", "sport": "weightlifting;crossfit", "name": "Strength Actual", "leisure": "sports_centre", "building": "", "gnis:state_id": "", "gnis:county_id": "", "ele": "", "gnis:created": "", "gnis:feature_id": "", "addr:housenumber": "1731", "addr:city": "Anaheim", "addr:postcode": "92805", "addr:state": "CA", "alt_name": "", "addr:street": "S Claudina Way", "gnis:county_name": "" }, "geometry": { "type": "Point", "coordinates": [ -1911371.1541, -505419.98565 ] } },
{ "type": "Feature", "properties": { "full_id": "n5910923594", "osm_id": "5910923594", "osm_type": "node", "sport": "weightlifting;crossfit", "name": "Tahoe Truckee Weightlifting", "leisure": "sports_centre", "building": "", "gnis:state_id": "", "gnis:county_id": "", "ele": "", "gnis:created": "", "gnis:feature_id": "", "addr:housenumber": "40153", "addr:city": "Truckee", "addr:postcode": "91367", "addr:state": "CA", "alt_name": "", "addr:street": "Truckee Airport Rd", "gnis:county_name": "" }, "geometry": { "type": "Point", "coordinates": [ -1940205.07646, 167765.51159 ] } },
{ "type": "Feature", "properties": { "full_id": "n5910923595", "osm_id": "5910923595", "osm_type": "node", "sport": "weightlifting;crossfit", "name": "Takano Athletics", "leisure": "sports_centre", "building": "", "gnis:state_id": "", "gnis:county_id": "", "ele": "", "gnis:created": "", "gnis:feature_id": "", "addr:housenumber": "6036", "addr:city": "Woodland Hills", "addr:postcode": "91367", "addr:state": "CA", "alt_name": "", "addr:street": "Variel Ave", "gnis:county_name": "" }, "geometry": { "type": "Point", "coordinates": [ -1960140.89041, -448707.78621 ] } },
{ "type": "Feature", "properties": { "full_id": "n5910276713", "osm_id": "5910276713", "osm_type": "node", "sport": "weightlifting;crossfit", "name": "Altius Athletics", "leisure": "sports_centre", "building": "0", "gnis:state_id": "0", "gnis:county_id": "0", "ele": "", "gnis:created": "0", "gnis:feature_id": "", "addr:housenumber": "5611", "addr:city": "Kapaa", "addr:postcode": "96746", "addr:state": "HI", "alt_name": "0", "addr:street": "Kawaihau Road", "gnis:county_name": "" }, "geometry": { "type": "Point", "coordinates": [ -6000885.05143, 15502.35922 ] } },
{ "type": "Feature", "properties": { "full_id": "n5910442386", "osm_id": "5910442386", "osm_type": "node", "sport": "weightlifting;crossfit", "name": "HI Performance", "leisure": "sports_centre", "building": "0", "gnis:state_id": "0", "gnis:county_id": "0", "ele": "", "gnis:created": "0", "gnis:feature_id": "", "addr:housenumber": "530", "addr:city": "Kahului ", "addr:postcode": "967732", "addr:state": "HI", "alt_name": "0", "addr:street": "East Uahi Way", "gnis:county_name": "" }, "geometry": { "type": "Point", "coordinates": [ -5852825.02379, -273000.85604 ] } },
{ "type": "Feature", "properties": { "full_id": "n5910442396", "osm_id": "5910442396", "osm_type": "node", "sport": "weightlifting;crossfit", "name": "Taken Not Given Weightlifting", "leisure": "sports_centre", "building": "0", "gnis:state_id": "0", "gnis:county_id": "0", "ele": "", "gnis:created": "0", "gnis:feature_id": "", "addr:housenumber": "1727", "addr:city": "Honalulu", "addr:postcode": "96819", "addr:state": "HI", "alt_name": "0", "addr:street": "Republican St", "gnis:county_name": "" }, "geometry": { "type": "Point", "coordinates": [ -5936335.68426, -144016.67075 ] } },
{ "type": "Feature", "properties": { "full_id": "n5910442400", "osm_id": "5910442400", "osm_type": "node", "sport": "weightlifting;crossfit", "name": "West Oahu Barbell", "leisure": "sports_centre", "building": "0", "gnis:state_id": "0", "gnis:county_id": "0", "ele": "", "gnis:created": "0", "gnis:feature_id": "", "addr:housenumber": "2045", "addr:city": "Kapolei", "addr:postcode": "96707", "addr:state": "HI", "alt_name": "0", "addr:street": "Lauwiliwili St #1001", "gnis:county_name": "" }, "geometry": { "type": "Point", "coordinates": [ -5953434.13601, -131189.1088 ] } },
{ "type": "Feature", "properties": { "full_id": "n5910524290", "osm_id": "5910524290", "osm_type": "node", "sport": "weightlifting;crossfit", "name": "Team Hawaii Weightlifting", "leisure": "sports_centre", "building": "0", "gnis:state_id": "0", "gnis:county_id": "0", "ele": "", "gnis:created": "0", "gnis:feature_id": "", "addr:housenumber": "PO Box 17247", "addr:city": "Honolulu", "addr:postcode": "96817", "addr:state": "HI", "alt_name": "0", "addr:street": "Honolulu", "gnis:county_name": "" }, "geometry": { "type": "Point", "coordinates": [ -5936060.66384, -144605.08537 ] } },
{ "type": "Feature", "properties": { "full_id": "n5910524306", "osm_id": "5910524306", "osm_type": "node", "sport": "weightlifting;crossfit", "name": "Hawaii Island Barbell", "leisure": "sports_centre", "building": "0", "gnis:state_id": "", "gnis:county_id": "0", "ele": "", "gnis:created": "0", "gnis:feature_id": "", "addr:housenumber": "64-1023", "addr:city": "Kamuela", "addr:postcode": "96732", "addr:state": "HI", "alt_name": "0", "addr:street": "Mamaloahoa Hwy", "gnis:county_name": "" }, "geometry": { "type": "Point", "coordinates": [ -5837480.92051, -397652.31642 ] } },
{ "type": "Feature", "properties": { "full_id": "n5910885665", "osm_id": "5910885665", "osm_type": "node", "sport": "weightlifting;crossfit", "name": "Maui Strong", "leisure": "sports_centre", "building": "0", "gnis:state_id": "0", "gnis:county_id": "0", "ele": "", "gnis:created": "0", "gnis:feature_id": "", "addr:housenumber": "41", "addr:city": "Kihei", "addr:postcode": "96753", "addr:state": "HI", "alt_name": "0", "addr:street": "E Lipoa St", "gnis:county_name": "" }, "geometry": { "type": "Point", "coordinates": [ -5856779.29091, -284071.4563 ] } },
{ "type": "Feature", "properties": { "full_id": "n5084847863", "osm_id": "5084847863", "osm_type": "node", "sport": "weightlifting;crossfit", "name": "Strength University", "leisure": "sports_centre", "building": "", "gnis:state_id": "", "gnis:county_id": "", "ele": "", "gnis:created": "", "gnis:feature_id": "", "addr:housenumber": "11801", "addr:city": "Bothell", "addr:postcode": "98011", "addr:state": "WA", "alt_name": "", "addr:street": "Northeast 160th Street", "gnis:county_name": "" }, "geometry": { "type": "Point", "coordinates": [ -1828572.46215, 1168700.84858 ] } },
{ "type": "Feature", "properties": { "full_id": "n5910276712", "osm_id": "5910276712", "osm_type": "node", "sport": "weightlifting;crossfit", "name": "Alpha Barbell", "leisure": "sports_centre", "building": "", "gnis:state_id": "", "gnis:county_id": "", "ele": "", "gnis:created": "", "gnis:feature_id": "", "addr:housenumber": "1087", "addr:city": "Pacific", "addr:postcode": "98047", "addr:state": "WA", "alt_name": "", "addr:street": "Valentine Avenue Southeast", "gnis:county_name": "" }, "geometry": { "type": "Point", "coordinates": [ -1848813.25878, 1114069.31398 ] } },
{ "type": "Feature", "properties": { "full_id": "n5910276727", "osm_id": "5910276727", "osm_type": "node", "sport": "weightlifting;crossfit", "name": "Gee Strength", "leisure": "sports_centre", "building": "", "gnis:state_id": "", "gnis:county_id": "", "ele": "", "gnis:created": "", "gnis:feature_id": "", "addr:housenumber": "871", "addr:city": "Springfield", "addr:postcode": "97477", "addr:state": "OR", "alt_name": "", "addr:street": "Shelley Street", "gnis:county_name": "" }, "geometry": { "type": "Point", "coordinates": [ -2008993.08403, 768587.0758 ] } },
{ "type": "Feature", "properties": { "full_id": "n5910361055", "osm_id": "5910361055", "osm_type": "node", "sport": "weightlifting", "name": "Iron Beaver", "leisure": "sports_centre", "building": "", "gnis:state_id": "", "gnis:county_id": "", "ele": "", "gnis:created": "", "gnis:feature_id": "", "addr:housenumber": "1780", "addr:city": "Corvallis", "addr:postcode": "97333", "addr:state": "OR", "alt_name": "", "addr:street": "Southwest 3rd Street", "gnis:county_name": "" }, "geometry": { "type": "Point", "coordinates": [ -2009107.74015, 828289.13118 ] } },
{ "type": "Feature", "properties": { "full_id": "n5910361062", "osm_id": "5910361062", "osm_type": "node", "sport": "weightlifting;crossfit", "name": "CrossFit Loft", "leisure": "sports_centre", "building": "", "gnis:state_id": "", "gnis:county_id": "", "ele": "", "gnis:created": "", "gnis:feature_id": "", "addr:housenumber": "4142", "addr:city": "Seattle", "addr:postcode": "98116", "addr:state": "WA", "alt_name": "", "addr:street": "California Avenue Southwest", "gnis:county_name": "" }, "geometry": { "type": "Point", "coordinates": [ -1848122.24874, 1152449.0599 ] } },
{ "type": "Feature", "properties": { "full_id": "n5910361063", "osm_id": "5910361063", "osm_type": "node", "sport": "weightlifting;crossfit", "name": "Drive Barbell Club", "leisure": "sports_centre", "building": "", "gnis:state_id": "", "gnis:county_id": "", "ele": "", "gnis:created": "", "gnis:feature_id": "", "addr:housenumber": "2757", "addr:city": "Redmond", "addr:postcode": "97756", "addr:state": "OR", "alt_name": "", "addr:street": "Northwest 7th Street", "gnis:county_name": "" }, "geometry": { "type": "Point", "coordinates": [ -1866536.7674, 757469.23451 ] } },
{ "type": "Feature", "properties": { "full_id": "n5910474539", "osm_id": "5910474539", "osm_type": "node", "sport": "weightlifting;crossfit", "name": "Belltown Weightlifting", "leisure": "sports_centre", "building": "", "gnis:state_id": "", "gnis:county_id": "", "ele": "", "gnis:created": "", "gnis:feature_id": "", "addr:housenumber": "3025", "addr:city": "Seattle", "addr:postcode": "98121", "addr:state": "WA", "alt_name": "", "addr:street": "1st Ave", "gnis:county_name": "" }, "geometry": { "type": "Point", "coordinates": [ -1844265.16745, 1157834.1805 ] } },
{ "type": "Feature", "properties": { "full_id": "n5910474552", "osm_id": "5910474552", "osm_type": "node", "sport": "weightlifting;crossfit", "name": "Calpians Weightlifting Club", "leisure": "sports_centre", "building": "", "gnis:state_id": "", "gnis:county_id": "", "ele": "", "gnis:created": "", "gnis:feature_id": "", "addr:housenumber": "1627", "addr:city": "Sumner", "addr:postcode": "0930-", "addr:state": "WA", "alt_name": "", "addr:street": "45th St E Suite 102", "gnis:county_name": "" }, "geometry": { "type": "Point", "coordinates": [ -1848953.36358, 1109944.50024 ] } },
{ "type": "Feature", "properties": { "full_id": "n5910474553", "osm_id": "5910474553", "osm_type": "node", "sport": "weightlifting;crossfit", "name": "Catalyst Athletics", "leisure": "sports_centre", "building": "", "gnis:state_id": "", "gnis:county_id": "", "ele": "", "gnis:created": "", "gnis:feature_id": "", "addr:housenumber": "611", "addr:city": "Redmond", "addr:postcode": "94583", "addr:state": "OR", "alt_name": "", "addr:street": "NE Jackpine Ct Bldg C", "gnis:county_name": "" }, "geometry": { "type": "Point", "coordinates": [ -1866068.57985, 755463.87218 ] } },
{ "type": "Feature", "properties": { "full_id": "n5910524286", "osm_id": "5910524286", "osm_type": "node", "sport": "weightlifting;crossfit", "name": "Magnus Barbell", "leisure": "sports_centre", "building": "", "gnis:state_id": "", "gnis:county_id": "", "ele": "", "gnis:created": "", "gnis:feature_id": "", "addr:housenumber": "930", "addr:city": "Portland", "addr:postcode": "97214", "addr:state": "OR", "alt_name": "", "addr:street": "SE Taylor St", "gnis:county_name": "" }, "geometry": { "type": "Point", "coordinates": [ -1933693.74942, 925215.62244 ] } },
{ "type": "Feature", "properties": { "full_id": "n5910524303", "osm_id": "5910524303", "osm_type": "node", "sport": "weightlifting;crossfit", "name": "Fireside Barbell Club", "leisure": "sports_centre", "building": "", "gnis:state_id": "", "gnis:county_id": "", "ele": "", "gnis:created": "", "gnis:feature_id": "", "addr:housenumber": "2170 ", "addr:city": "Meridian", "addr:postcode": "83646", "addr:state": "ID", "alt_name": "", "addr:street": "E Commercial ST", "gnis:county_name": "" }, "geometry": { "type": "Point", "coordinates": [ -1533654.68175, 591809.05014 ] } },
{ "type": "Feature", "properties": { "full_id": "n5910524304", "osm_id": "5910524304", "osm_type": "node", "sport": "weightlifting;crossfit", "name": "Fortius Barbell Club", "leisure": "sports_centre", "building": "", "gnis:state_id": "", "gnis:county_id": "", "ele": "", "gnis:created": "", "gnis:feature_id": "", "addr:housenumber": "1202", "addr:city": "Olympia", "addr:postcode": "985021277", "addr:state": "WA", "alt_name": "", "addr:street": "Black Lake Blvd Ste E40", "gnis:county_name": "" }, "geometry": { "type": "Point", "coordinates": [ -1902935.69505, 1103424.14579 ] } },
{ "type": "Feature", "properties": { "full_id": "n5910583826", "osm_id": "5910583826", "osm_type": "node", "sport": "weightlifting;crossfit", "name": "Paramount Barbell", "leisure": "sports_centre", "building": "", "gnis:state_id": "", "gnis:county_id": "", "ele": "", "gnis:created": "", "gnis:feature_id": "", "addr:housenumber": "22402", "addr:city": "Mountlake Terrace", "addr:postcode": "98043", "addr:state": "WA", "alt_name": "", "addr:street": "44th Ave W Ste A", "gnis:county_name": "" }, "geometry": { "type": "Point", "coordinates": [ -1834390.77388, 1176646.6043 ] } },
{ "type": "Feature", "properties": { "full_id": "n5910620583", "osm_id": "5910620583", "osm_type": "node", "sport": "weightlifting;crossfit", "name": "Butte Barbell Club", "leisure": "sports_centre", "building": "", "gnis:state_id": "", "gnis:county_id": "", "ele": "", "gnis:created": "", "gnis:feature_id": "", "addr:housenumber": "675", "addr:city": "Butte", "addr:postcode": "59701", "addr:state": "MT", "alt_name": "", "addr:street": "S Montana", "gnis:county_name": "" }, "geometry": { "type": "Point", "coordinates": [ -1199541.98675, 814374.8044 ] } },
{ "type": "Feature", "properties": { "full_id": "n5910668480", "osm_id": "5910668480", "osm_type": "node", "sport": "weightlifting;crossfit", "name": "Fuse Barbell Clu", "leisure": "sports_centre", "building": "", "gnis:state_id": "", "gnis:county_id": "", "ele": "", "gnis:created": "", "gnis:feature_id": "", "addr:housenumber": "17625", "addr:city": "Redmond", "addr:postcode": "98052", "addr:state": "WA", "alt_name": "", "addr:street": "NE 65th St #140", "gnis:county_name": "" }, "geometry": { "type": "Point", "coordinates": [ -1825762.63681, 1158148.28621 ] } },
{ "type": "Feature", "properties": { "full_id": "n5910668484", "osm_id": "5910668484", "osm_type": "node", "sport": "weightlifting;crossfit", "name": "Heart and Barbell Club", "leisure": "sports_centre", "building": "", "gnis:state_id": "", "gnis:county_id": "", "ele": "", "gnis:created": "", "gnis:feature_id": "", "addr:housenumber": "301", "addr:city": "Coeur d' Alene", "addr:postcode": "83814", "addr:state": "ID", "alt_name": "", "addr:street": "N 4th St", "gnis:county_name": "" }, "geometry": { "type": "Point", "coordinates": [ -1459906.59913, 1067214.60237 ] } },
{ "type": "Feature", "properties": { "full_id": "n5910669786", "osm_id": "5910669786", "osm_type": "node", "sport": "weightlifting;crossfit", "name": "Heroic Barbell", "leisure": "sports_centre", "building": "", "gnis:state_id": "", "gnis:county_id": "", "ele": "", "gnis:created": "", "gnis:feature_id": "", "addr:housenumber": "2820", "addr:city": "Portland", "addr:postcode": "97202", "addr:state": "OR", "alt_name": "", "addr:street": "SE 8th Ave", "gnis:county_name": "" }, "geometry": { "type": "Point", "coordinates": [ -1934182.8434, 923819.43842 ] } },
{ "type": "Feature", "properties": { "full_id": "n5910669802", "osm_id": "5910669802", "osm_type": "node", "sport": "weightlifting;crossfit", "name": "Foundation Barbell", "leisure": "sports_centre", "building": "", "gnis:state_id": "", "gnis:county_id": "", "ele": "", "gnis:created": "", "gnis:feature_id": "", "addr:housenumber": "1122 ", "addr:city": "Seattle ", "addr:postcode": "98122", "addr:state": "WA", "alt_name": "", "addr:street": "E Pike St #1385", "gnis:county_name": "" }, "geometry": { "type": "Point", "coordinates": [ -1841815.90089, 1156662.43396 ] } },
{ "type": "Feature", "properties": { "full_id": "n5910751760", "osm_id": "5910751760", "osm_type": "node", "sport": "weightlifting;crossfit", "name": "Vulkan Weightlifting", "leisure": "sports_centre", "building": "", "gnis:state_id": "", "gnis:county_id": "", "ele": "", "gnis:created": "", "gnis:feature_id": "", "addr:housenumber": "6050", "addr:city": "Portland", "addr:postcode": "97239", "addr:state": "OR", "alt_name": "", "addr:street": "SW Macadam Ave", "gnis:county_name": "" }, "geometry": { "type": "Point", "coordinates": [ -1935984.1947, 921620.20935 ] } },
{ "type": "Feature", "properties": { "full_id": "n5910751767", "osm_id": "5910751767", "osm_type": "node", "sport": "weightlifting;crossfit", "name": "Team Montana", "leisure": "sports_centre", "building": "", "gnis:state_id": "", "gnis:county_id": "", "ele": "", "gnis:created": "", "gnis:feature_id": "", "addr:housenumber": "1008 ", "addr:city": "Bozeman", "addr:postcode": "59715", "addr:state": "MT", "alt_name": "", "addr:street": "S Tracy Ave", "gnis:county_name": "" }, "geometry": { "type": "Point", "coordinates": [ -1097807.8579, 757005.30179 ] } },
{ "type": "Feature", "properties": { "full_id": "n5910885643", "osm_id": "5910885643", "osm_type": "node", "sport": "weightlifting;crossfit", "name": "Kenmore Barbell Club", "leisure": "sports_centre", "building": "", "gnis:state_id": "", "gnis:county_id": "", "ele": "", "gnis:created": "", "gnis:feature_id": "", "addr:housenumber": "7524", "addr:city": "Kenmore", "addr:postcode": "98208", "addr:state": "WA", "alt_name": "", "addr:street": "NE 175th St", "gnis:county_name": "" }, "geometry": { "type": "Point", "coordinates": [ -1831971.1539, 1171278.08089 ] } },
{ "type": "Feature", "properties": { "full_id": "n5910885651", "osm_id": "5910885651", "osm_type": "node", "sport": "weightlifting;crossfit", "name": "Portland Oregon Weightlifting", "leisure": "sports_centre", "building": "", "gnis:state_id": "", "gnis:county_id": "", "ele": "", "gnis:created": "", "gnis:feature_id": "", "addr:housenumber": "13780", "addr:city": "Sherwood", "addr:postcode": "97140", "addr:state": "OR", "alt_name": "", "addr:street": "SW Galbreath Dr Bldg D", "gnis:county_name": "" }, "geometry": { "type": "Point", "coordinates": [ -1949896.73811, 912223.79083 ] } },
{ "type": "Feature", "properties": { "full_id": "n5910885659", "osm_id": "5910885659", "osm_type": "node", "sport": "weightlifting;crossfit", "name": "Lead to Platinum Barbell Club", "leisure": "sports_centre", "building": "", "gnis:state_id": "", "gnis:county_id": "", "ele": "", "gnis:created": "", "gnis:feature_id": "", "addr:housenumber": "2015", "addr:city": "Lewiston", "addr:postcode": "83501", "addr:state": "ID", "alt_name": "", "addr:street": "8th Ave", "gnis:county_name": "" }, "geometry": { "type": "Point", "coordinates": [ -1507959.27871, 925341.82842 ] } },
{ "type": "Feature", "properties": { "full_id": "n5910922984", "osm_id": "5910922984", "osm_type": "node", "sport": "weightlifting;crossfit", "name": "Snake River Weightlifting", "leisure": "sports_centre", "building": "", "gnis:state_id": "", "gnis:county_id": "", "ele": "", "gnis:created": "", "gnis:feature_id": "", "addr:housenumber": "1125 ", "addr:city": "Nampa", "addr:postcode": "83687", "addr:state": "ID", "alt_name": "", "addr:street": "N 36th St", "gnis:county_name": "" }, "geometry": { "type": "Point", "coordinates": [ -1545902.28142, 592685.64988 ] } },
{ "type": "Feature", "properties": { "full_id": "n5910923588", "osm_id": "5910923588", "osm_type": "node", "sport": "weightlifting;crossfit", "name": "Steel Bridge Weightlifting", "leisure": "sports_centre", "building": "", "gnis:state_id": "", "gnis:county_id": "", "ele": "", "gnis:created": "", "gnis:feature_id": "", "addr:housenumber": "740 ", "addr:city": "Portland", "addr:postcode": "97227", "addr:state": "OR", "alt_name": "", "addr:street": "N Russell St", "gnis:county_name": "" }, "geometry": { "type": "Point", "coordinates": [ -1934122.00548, 928527.16821 ] } },
{ "type": "Feature", "properties": { "full_id": "n5910276709", "osm_id": "5910276709", "osm_type": "node", "sport": "weightlifting;crossfit", "name": "Alaska Weightlifting", "leisure": "sports_centre", "building": "", "gnis:state_id": "0", "gnis:county_id": "0", "ele": "0", "gnis:created": "0", "gnis:feature_id": "0", "addr:housenumber": "7610", "addr:city": "Palmer", "addr:postcode": "99645", "addr:state": "AK", "alt_name": "0", "addr:street": "East Palmer-Wasilla Highway", "gnis:county_name": "0" }, "geometry": { "type": "Point", "coordinates": [ -2723781.22979, 3292786.61612 ] } },
{ "type": "Feature", "properties": { "full_id": "n5910524308", "osm_id": "5910524308", "osm_type": "node", "sport": "weightlifting;crossfit", "name": "Influence Barbell", "leisure": "sports_centre", "building": "", "gnis:state_id": "0", "gnis:county_id": "0", "ele": "0", "gnis:created": "0", "gnis:feature_id": "0", "addr:housenumber": "4831", "addr:city": "Anchorage", "addr:postcode": "99503", "addr:state": "AK", "alt_name": "0", "addr:street": "Fairbanks Unit D", "gnis:county_name": "0" }, "geometry": { "type": "Point", "coordinates": [ -2776693.40658, 3271407.95754 ] } },
{ "type": "Feature", "properties": { "full_id": "n5910583839", "osm_id": "5910583839", "osm_type": "node", "sport": "weightlifting;crossfit", "name": "Southside Strength", "leisure": "sports_centre", "building": "", "gnis:state_id": "0", "gnis:county_id": "0", "ele": "0", "gnis:created": "0", "gnis:feature_id": "0", "addr:housenumber": "11901", "addr:city": "Anchorage", "addr:postcode": "99515", "addr:state": "AK", "alt_name": "0", "addr:street": "Industry Way", "gnis:county_name": "0" }, "geometry": { "type": "Point", "coordinates": [ -2779972.61416, 3265127.33009 ] } },
{ "type": "Feature", "properties": { "full_id": "n5910276705", "osm_id": "5910276705", "osm_type": "node", "sport": "weightlifting", "name": "4 Star Strength", "leisure": "sports_centre", "building": "", "gnis:state_id": "", "gnis:county_id": "", "ele": "", "gnis:created": "", "gnis:feature_id": "", "addr:housenumber": "30942", "addr:city": "Livonia", "addr:postcode": "48150", "addr:state": "MI", "alt_name": "", "addr:street": "Industrial Road", "gnis:county_name": "" }, "geometry": { "type": "Point", "coordinates": [ 976623.63014, 346252.66038 ] } },
{ "type": "Feature", "properties": { "full_id": "n5910276707", "osm_id": "5910276707", "osm_type": "node", "sport": "weightlifting;crossfit", "name": "810 Barbell Club", "leisure": "sports_centre", "building": "", "gnis:state_id": "", "gnis:county_id": "", "ele": "", "gnis:created": "", "gnis:feature_id": "", "addr:housenumber": "8200", "addr:city": "Grand Blanc", "addr:postcode": "48439", "addr:state": "MI", "alt_name": "", "addr:street": "Embury Road", "gnis:county_name": "" }, "geometry": { "type": "Point", "coordinates": [ 945450.70721, 405406.67886 ] } },
{ "type": "Feature", "properties": { "full_id": "n5910276722", "osm_id": "5910276722", "osm_type": "node", "sport": "weightlifting", "name": "Aurora Weightlifting", "leisure": "sports_centre", "building": "residential", "gnis:state_id": "", "gnis:county_id": "", "ele": "", "gnis:created": "", "gnis:feature_id": "", "addr:housenumber": "2576", "addr:city": "Montgomery", "addr:postcode": "60538", "addr:state": "IL", "alt_name": "", "addr:street": "Westgate Lane", "gnis:county_name": "" }, "geometry": { "type": "Point", "coordinates": [ 592729.06533, 225159.25375 ] } },
{ "type": "Feature", "properties": { "full_id": "n5910361052", "osm_id": "5910361052", "osm_type": "node", "sport": "weightlifting;crossfit", "name": "Windy City Weightlifting Club", "leisure": "sports_centre", "building": "", "gnis:state_id": "", "gnis:county_id": "", "ele": "", "gnis:created": "", "gnis:feature_id": "", "addr:housenumber": "113", "addr:city": "Buffalo Grove", "addr:postcode": "60089", "addr:state": "IL", "alt_name": "", "addr:street": "McHenry Road", "gnis:county_name": "" }, "geometry": { "type": "Point", "coordinates": [ 624080.8834, 281079.59444 ] } },
{ "type": "Feature", "properties": { "full_id": "n5910361058", "osm_id": "5910361058", "osm_type": "node", "sport": "weightlifting;crossfit", "name": "Three Kings Weightlifting", "leisure": "sports_centre", "building": "", "gnis:state_id": "", "gnis:county_id": "", "ele": "", "gnis:created": "", "gnis:feature_id": "", "addr:housenumber": "10400", "addr:city": "Noblesville", "addr:postcode": "46060", "addr:state": "IN", "alt_name": "", "addr:street": "Pleasant Street", "gnis:county_name": "" }, "geometry": { "type": "Point", "coordinates": [ 803039.72242, 47289.11622 ] } },
{ "type": "Feature", "properties": { "full_id": "n5910361066", "osm_id": "5910361066", "osm_type": "node", "sport": "weightlifting;crossfit", "name": "Illumine Weightlifting", "leisure": "sports_centre", "building": "", "gnis:state_id": "", "gnis:county_id": "", "ele": "", "gnis:created": "", "gnis:feature_id": "", "addr:housenumber": "6663", "addr:city": "Niles", "addr:postcode": "60714", "addr:state": "IL", "alt_name": "", "addr:street": "West Howard Street", "gnis:county_name": "" }, "geometry": { "type": "Point", "coordinates": [ 638208.44253, 265983.74743 ] } },
{ "type": "Feature", "properties": { "full_id": "n5910379502", "osm_id": "5910379502", "osm_type": "node", "sport": "weightlifting;crossfit", "name": "Wausau Barbell Club", "leisure": "sports_centre", "building": "", "gnis:state_id": "", "gnis:county_id": "", "ele": "", "gnis:created": "", "gnis:feature_id": "", "addr:housenumber": "1205", "addr:city": "Wausau", "addr:postcode": "54401", "addr:state": "WI", "alt_name": "", "addr:street": "Starling Ln", "gnis:county_name": "" }, "geometry": { "type": "Point", "coordinates": [ 471040.72672, 597322.38119 ] } },
{ "type": "Feature", "properties": { "full_id": "n5910379504", "osm_id": "5910379504", "osm_type": "node", "sport": "weightlifting;crossfit", "name": "Uncommon Barbbell", "leisure": "sports_centre", "building": "", "gnis:state_id": "", "gnis:county_id": "", "ele": "", "gnis:created": "", "gnis:feature_id": "", "addr:housenumber": "3835", "addr:city": "Lafayette", "addr:postcode": "47905", "addr:state": "IN", "alt_name": "", "addr:street": "Fortune Dr", "gnis:county_name": "" }, "geometry": { "type": "Point", "coordinates": [ 730814.9097, 83831.03843 ] } },
{ "type": "Feature", "properties": { "full_id": "n5910442394", "osm_id": "5910442394", "osm_type": "node", "sport": "weightlifting;crossfit", "name": "Sayre Park Weightlifting Club", "leisure": "sports_centre", "building": "", "gnis:state_id": "", "gnis:county_id": "", "ele": "", "gnis:created": "", "gnis:feature_id": "", "addr:housenumber": "6871", "addr:city": "Chicago", "addr:postcode": "60201", "addr:state": "IL", "alt_name": "", "addr:street": "W Belden", "gnis:county_name": "" }, "geometry": { "type": "Point", "coordinates": [ 638919.46119, 254436.34805 ] } },
{ "type": "Feature", "properties": { "full_id": "n5910474537", "osm_id": "5910474537", "osm_type": "node", "sport": "weightlifting;crossfit", "name": "West Michigan Barbell Club", "leisure": "sports_centre", "building": "", "gnis:state_id": "", "gnis:county_id": "", "ele": "", "gnis:created": "", "gnis:feature_id": "", "addr:housenumber": "2430", "addr:city": "Grand Rapids", "addr:postcode": "49544", "addr:state": "MI", "alt_name": "", "addr:street": "Turner Ave Ste A", "gnis:county_name": "" }, "geometry": { "type": "Point", "coordinates": [ 789428.37845, 398216.19405 ] } },
{ "type": "Feature", "properties": { "full_id": "n5910524295", "osm_id": "5910524295", "osm_type": "node", "sport": "weightlifting;crossfit", "name": "Blue Lion Fitness", "leisure": "sports_centre", "building": "", "gnis:state_id": "", "gnis:county_id": "", "ele": "", "gnis:created": "", "gnis:feature_id": "", "addr:housenumber": "401", "addr:city": "Ann Arbor", "addr:postcode": "48103", "addr:state": "MI", "alt_name": "", "addr:street": "S Maple Rd", "gnis:county_name": "" }, "geometry": { "type": "Point", "coordinates": [ 944965.81768, 329977.27929 ] } },
{ "type": "Feature", "properties": { "full_id": "n5910620577", "osm_id": "5910620577", "osm_type": "node", "sport": "weightlifting;crossfit", "name": "Southwest Michigan Barbell", "leisure": "sports_centre", "building": "", "gnis:state_id": "", "gnis:county_id": "", "ele": "", "gnis:created": "", "gnis:feature_id": "", "addr:housenumber": "3905", "addr:city": "St Joseph", "addr:postcode": "49085", "addr:state": "MI", "alt_name": "", "addr:street": "M-139 Unit 101", "gnis:county_name": "" }, "geometry": { "type": "Point", "coordinates": [ 743251.6296, 279238.39971 ] } },
{ "type": "Feature", "properties": { "full_id": "n5910669798", "osm_id": "5910669798", "osm_type": "node", "sport": "weightlifting;crossfit", "name": "Elite Athletic", "leisure": "sports_centre", "building": "", "gnis:state_id": "", "gnis:county_id": "", "ele": "", "gnis:created": "", "gnis:feature_id": "", "addr:housenumber": "12", "addr:city": "Arlington Heights", "addr:postcode": "60004", "addr:state": "IL", "alt_name": "", "addr:street": "West College Dr", "gnis:county_name": "" }, "geometry": { "type": "Point", "coordinates": [ 622339.81036, 278078.52914 ] } },
{ "type": "Feature", "properties": { "full_id": "n5910669801", "osm_id": "5910669801", "osm_type": "node", "sport": "weightlifting;crossfit", "name": "Forza Weightlifting", "leisure": "sports_centre", "building": "", "gnis:state_id": "", "gnis:county_id": "", "ele": "", "gnis:created": "", "gnis:feature_id": "", "addr:housenumber": "1033", "addr:city": "Grayslake", "addr:postcode": "60030", "addr:state": "IL", "alt_name": "", "addr:street": "Progress Dr", "gnis:county_name": "" }, "geometry": { "type": "Point", "coordinates": [ 617371.21741, 302354.99612 ] } },
{ "type": "Feature", "properties": { "full_id": "n5910669804", "osm_id": "5910669804", "osm_type": "node", "sport": "weightlifting;crossfit", "name": "Temple of Exertion", "leisure": "sports_centre", "building": "", "gnis:state_id": "", "gnis:county_id": "", "ele": "", "gnis:created": "", "gnis:feature_id": "", "addr:housenumber": "3402", "addr:city": "DeWitt", "addr:postcode": "488820", "addr:state": "MI", "alt_name": "", "addr:street": "Hawthorne Woods Pkwy", "gnis:county_name": "" }, "geometry": { "type": "Point", "coordinates": [ 875009.05742, 386190.15611 ] } },
{ "type": "Feature", "properties": { "full_id": "n5910885661", "osm_id": "5910885661", "osm_type": "node", "sport": "weightlifting;crossfit", "name": "Lift Lab Weightlifting", "leisure": "sports_centre", "building": "", "gnis:state_id": "", "gnis:county_id": "", "ele": "", "gnis:created": "", "gnis:feature_id": "", "addr:housenumber": "500", "addr:city": "Indianapolis", "addr:postcode": "46204", "addr:state": "IN", "alt_name": "", "addr:street": "N Meridian ST", "gnis:county_name": "" }, "geometry": { "type": "Point", "coordinates": [ 792399.42056, 14589.34981 ] } },
{ "type": "Feature", "properties": { "full_id": "n5910885673", "osm_id": "5910885673", "osm_type": "node", "sport": "weightlifting;crossfit", "name": "Northern Michigan Weightlifting", "leisure": "sports_centre", "building": "", "gnis:state_id": "", "gnis:county_id": "", "ele": "", "gnis:created": "", "gnis:feature_id": "", "addr:housenumber": "1401", "addr:city": "Marquette", "addr:postcode": "49855", "addr:state": "MI", "alt_name": "", "addr:street": "Presque Isle Ave", "gnis:county_name": "" }, "geometry": { "type": "Point", "coordinates": [ 619693.60877, 802937.87928 ] } },
{ "type": "Feature", "properties": { "full_id": "n5910923585", "osm_id": "5910923585", "osm_type": "node", "sport": "weightlifting;crossfit", "name": "South Loop Strength", "leisure": "sports_centre", "building": "", "gnis:state_id": "", "gnis:county_id": "", "ele": "", "gnis:created": "", "gnis:feature_id": "", "addr:housenumber": "645", "addr:city": "Chicago", "addr:postcode": "60605", "addr:state": "IL", "alt_name": "", "addr:street": "S Clark", "gnis:county_name": "" }, "geometry": { "type": "Point", "coordinates": [ 652372.58609, 250019.63831 ] } },
{ "type": "Feature", "properties": { "full_id": "n5910923589", "osm_id": "5910923589", "osm_type": "node", "sport": "weightlifting;crossfit", "name": "Steven D's Weightlifting", "leisure": "sports_centre", "building": "", "gnis:state_id": "", "gnis:county_id": "", "ele": "", "gnis:created": "", "gnis:feature_id": "", "addr:housenumber": "7851", "addr:city": "Cincinnati", "addr:postcode": "45249", "addr:state": "OH", "alt_name": "", "addr:street": "Palace Dr", "gnis:county_name": "" }, "geometry": { "type": "Point", "coordinates": [ 944410.05629, -27405.43258 ] } },
{ "type": "Feature", "properties": { "full_id": "n5910474542", "osm_id": "5910474542", "osm_type": "node", "sport": "weightlifting;crossfit", "name": "Genesis Weightlifting Club", "leisure": "sports_centre", "building": "", "gnis:state_id": "", "gnis:county_id": "", "ele": "", "gnis:created": "", "gnis:feature_id": "", "addr:housenumber": "2654", "addr:city": "Omaha", "addr:postcode": "68114", "addr:state": "NE", "alt_name": "", "addr:street": "N 72d St", "gnis:county_name": "" }, "geometry": { "type": "Point", "coordinates": [ -1917.46933, 151488.88976 ] } },
{ "type": "Feature", "properties": { "full_id": "n5910524285", "osm_id": "5910524285", "osm_type": "node", "sport": "weightlifting;crossfit", "name": "Machine Shed Sports", "leisure": "sports_centre", "building": "", "gnis:state_id": "", "gnis:county_id": "", "ele": "", "gnis:created": "", "gnis:feature_id": "", "addr:housenumber": "2021", "addr:city": "Menomonie", "addr:postcode": "54751", "addr:state": "WI", "alt_name": "", "addr:street": "Broadway St S", "gnis:county_name": "" }, "geometry": { "type": "Point", "coordinates": [ 302365.3574, 581126.378 ] } },
{ "type": "Feature", "properties": { "full_id": "n5910524298", "osm_id": "5910524298", "osm_type": "node", "sport": "weightlifting;crossfit", "name": "Climate Barbell Club", "leisure": "sports_centre", "building": "", "gnis:state_id": "", "gnis:county_id": "", "ele": "", "gnis:created": "", "gnis:feature_id": "", "addr:housenumber": "3427", "addr:city": "Omaha", "addr:postcode": "68124", "addr:state": "NE", "alt_name": "", "addr:street": "S 84th St", "gnis:county_name": "" }, "geometry": { "type": "Point", "coordinates": [ -3281.76868, 145151.0509 ] } },
{ "type": "Feature", "properties": { "full_id": "n5910751754", "osm_id": "5910751754", "osm_type": "node", "sport": "weightlifting;crossfit", "name": "Undisputed Weightlifting Club", "leisure": "sports_centre", "building": "", "gnis:state_id": "", "gnis:county_id": "", "ele": "", "gnis:created": "", "gnis:feature_id": "", "addr:housenumber": "1964", "addr:city": "Eagan", "addr:postcode": "55122", "addr:state": "MN", "alt_name": "", "addr:street": "Rahncliff Ct", "gnis:county_name": "" }, "geometry": { "type": "Point", "coordinates": [ 207965.52958, 568821.57561 ] } },
{ "type": "Feature", "properties": { "full_id": "n5910751761", "osm_id": "5910751761", "osm_type": "node", "sport": "weightlifting;crossfit", "name": "Rochester Barbell Club", "leisure": "sports_centre", "building": "", "gnis:state_id": "", "gnis:county_id": "", "ele": "", "gnis:created": "", "gnis:feature_id": "", "addr:housenumber": "2625", "addr:city": "Rochester ", "addr:postcode": "55901", "addr:state": "MN", "alt_name": "", "addr:street": "Hwy 14 West Sute HIJ", "gnis:county_name": "" }, "geometry": { "type": "Point", "coordinates": [ 263577.32693, 481450.16589 ] } },
{ "type": "Feature", "properties": { "full_id": "n5910923587", "osm_id": "5910923587", "osm_type": "node", "sport": "weightlifting;crossfit", "name": "Star City Barbell", "leisure": "sports_centre", "building": "", "gnis:state_id": "", "gnis:county_id": "", "ele": "", "gnis:created": "", "gnis:feature_id": "", "addr:housenumber": "3515", "addr:city": "Lincoln", "addr:postcode": "68521", "addr:state": "NE", "alt_name": "", "addr:street": "N 25th St Ste 2", "gnis:county_name": "" }, "geometry": { "type": "Point", "coordinates": [ -54423.01373, 100085.21138 ] } },
{ "type": "Feature", "properties": { "full_id": "n5910276706", "osm_id": "5910276706", "osm_type": "node", "sport": "weightlifting;crossfit", "name": "406 Barbell", "leisure": "sports_centre", "building": "", "gnis:state_id": "", "gnis:county_id": "", "ele": "", "gnis:created": "", "gnis:feature_id": "", "addr:housenumber": "138", "addr:city": "Billings", "addr:postcode": "59106", "addr:state": "MT", "alt_name": "", "addr:street": "Florine Lane", "gnis:county_name": "" }, "geometry": { "type": "Point", "coordinates": [ -915060.66121, 741920.06743 ] } },
{ "type": "Feature", "properties": { "full_id": "n5910583838", "osm_id": "5910583838", "osm_type": "node", "sport": "weightlifting;crossfit", "name": "Sixth Street Barbell Club", "leisure": "sports_centre", "building": "", "gnis:state_id": "", "gnis:county_id": "", "ele": "", "gnis:created": "", "gnis:feature_id": "", "addr:housenumber": "1711", "addr:city": "Billings", "addr:postcode": "59101", "addr:state": "MT", "alt_name": "", "addr:street": "6th Ave N Ste 1", "gnis:county_name": "" }, "geometry": { "type": "Point", "coordinates": [ -911636.95118, 744584.89554 ] } },
{ "type": "Feature", "properties": { "full_id": "n5909023490", "osm_id": "5909023490", "osm_type": "node", "sport": "weightlifting", "name": "Arkangel Barbell Club", "leisure": "sports_centre", "building": "", "gnis:state_id": "", "gnis:county_id": "", "ele": "", "gnis:created": "", "gnis:feature_id": "", "addr:housenumber": "409", "addr:city": "Camarillo", "addr:postcode": "93010", "addr:state": "CA", "alt_name": "", "addr:street": "Calle San Pablo", "gnis:county_name": "" }, "geometry": { "type": "Point", "coordinates": [ -1997236.50437, -436076.6468 ] } },
{ "type": "Feature", "properties": { "full_id": "n5910276703", "osm_id": "5910276703", "osm_type": "node", "sport": "weightlifting;crossfit", "name": "1904 Barbell", "leisure": "sports_centre", "building": "", "gnis:state_id": "", "gnis:county_id": "", "ele": "", "gnis:created": "", "gnis:feature_id": "", "addr:housenumber": "5745", "addr:city": "San Diego", "addr:postcode": "92123", "addr:state": "CA", "alt_name": "", "addr:street": "Kearny Villa Road", "gnis:county_name": "" }, "geometry": { "type": "Point", "coordinates": [ -1870400.0908, -630511.73991 ] } },
{ "type": "Feature", "properties": { "full_id": "n5910276704", "osm_id": "5910276704", "osm_type": "node", "sport": "weightlifting;crossfit", "name": "3 Wheels Barbell Club", "leisure": "sports_centre", "building": "residential", "gnis:state_id": "", "gnis:county_id": "", "ele": "", "gnis:created": "", "gnis:feature_id": "", "addr:housenumber": "7745", "addr:city": "Salt Lake City", "addr:postcode": "84121", "addr:state": "UT", "alt_name": "", "addr:street": "Brighton Way", "gnis:county_name": "" }, "geometry": { "type": "Point", "coordinates": [ -1252755.14342, 176726.07098 ] } },
{ "type": "Feature", "properties": { "full_id": "n5910276710", "osm_id": "5910276710", "osm_type": "node", "sport": "weightlifting;crossfit", "name": "Alee Athletics", "leisure": "sports_centre", "building": "", "gnis:state_id": "", "gnis:county_id": "", "ele": "", "gnis:created": "", "gnis:feature_id": "", "addr:housenumber": "4223", "addr:city": "Phoenix", "addr:postcode": "85040", "addr:state": "AZ", "alt_name": "", "addr:street": "South 36th Place", "gnis:county_name": "" }, "geometry": { "type": "Point", "coordinates": [ -1410150.23022, -654124.26845 ] } },
{ "type": "Feature", "properties": { "full_id": "n5910276714", "osm_id": "5910276714", "osm_type": "node", "sport": "weightlifting;crossfit", "name": "Anaheim Strength", "leisure": "sports_centre", "building": "", "gnis:state_id": "", "gnis:county_id": "", "ele": "", "gnis:created": "", "gnis:feature_id": "", "addr:housenumber": "41130", "addr:city": "Anaheim", "addr:postcode": "92807", "addr:state": "CA", "alt_name": "", "addr:street": "La Palma Avenue", "gnis:county_name": "" }, "geometry": { "type": "Point", "coordinates": [ -1903487.48261, -500826.9609 ] } },
{ "type": "Feature", "properties": { "full_id": "n5910276715", "osm_id": "5910276715", "osm_type": "node", "sport": "weightlifting;crossfit", "name": "Angeles Crest Barbell Club", "leisure": "sports_centre", "building": "", "gnis:state_id": "", "gnis:county_id": "", "ele": "", "gnis:created": "", "gnis:feature_id": "", "addr:housenumber": "3800", "addr:city": "La Crescenta", "addr:postcode": "91214", "addr:state": "CA", "alt_name": "", "addr:street": "Foothill Boulevard", "gnis:county_name": "" }, "geometry": { "type": "Point", "coordinates": [ -1930490.43043, -449020.99769 ] } },
{ "type": "Feature", "properties": { "full_id": "n5910276717", "osm_id": "5910276717", "osm_type": "node", "sport": "weightlifting;crossfit", "name": "Asap Weightlifting", "leisure": "sports_centre", "building": "", "gnis:state_id": "", "gnis:county_id": "", "ele": "", "gnis:created": "", "gnis:feature_id": "", "addr:housenumber": "906", "addr:city": "Stockton", "addr:postcode": "95210", "addr:state": "CA", "alt_name": "", "addr:street": "Tommydon Street", "gnis:county_name": "" }, "geometry": { "type": "Point", "coordinates": [ -2071125.78396, 44568.17313 ] } },
{ "type": "Feature", "properties": { "full_id": "n5910276719", "osm_id": "5910276719", "osm_type": "node", "sport": "weightlifting;crossfit", "name": "Asylum Barbell Club", "leisure": "sports_centre", "building": "", "gnis:state_id": "", "gnis:county_id": "", "ele": "", "gnis:created": "", "gnis:feature_id": "", "addr:housenumber": "17875", "addr:city": "Irvine", "addr:postcode": "92614", "addr:state": "CA", "alt_name": "", "addr:street": "Sky Park North", "gnis:county_name": "" }, "geometry": { "type": "Point", "coordinates": [ -1910609.10333, -519162.14626 ] } },
{ "type": "Feature", "properties": { "full_id": "n5910583837", "osm_id": "5910583837", "osm_type": "node", "sport": "weightlifting;crossfit", "name": "Scottsdale Barbell", "leisure": "sports_centre", "building": "", "gnis:state_id": "", "gnis:county_id": "", "ele": "", "gnis:created": "", "gnis:feature_id": "", "addr:housenumber": "8425", "addr:city": "Scottsdale", "addr:postcode": "85258", "addr:state": "AZ", "alt_name": "", "addr:street": "N 90th St Ste 3", "gnis:county_name": "" }, "geometry": { "type": "Point", "coordinates": [ -1397100.27859, -638758.59326 ] } },
{ "type": "Feature", "properties": { "full_id": "n5909006184", "osm_id": "5909006184", "osm_type": "node", "sport": "weightlifting;crossfit", "name": "Grounds and Pounds Weightlifting Club", "leisure": "sports_centre", "building": "", "gnis:state_id": "", "gnis:county_id": "", "ele": "", "gnis:created": "", "gnis:feature_id": "", "addr:housenumber": "500", "addr:city": "Fayetteville", "addr:postcode": "28303", "addr:state": "NC", "alt_name": "", "addr:street": "North Reilly Road", "gnis:county_name": "" }, "geometry": { "type": "Point", "coordinates": [ 1461118.91387, -445269.60788 ] } },
{ "type": "Feature", "properties": { "full_id": "n5910276708", "osm_id": "5910276708", "osm_type": "node", "sport": "weightlifting;crossfit", "name": "95East Barbell Club", "leisure": "sports_centre", "building": "", "gnis:state_id": "", "gnis:county_id": "", "ele": "", "gnis:created": "", "gnis:feature_id": "", "addr:housenumber": "1216", "addr:city": "Goldsboro", "addr:postcode": "27534", "addr:state": "NC", "alt_name": "", "addr:street": "Parkway Dr", "gnis:county_name": "" }, "geometry": { "type": "Point", "coordinates": [ 1544219.72672, -396213.22495 ] } },
{ "type": "Feature", "properties": { "full_id": "n5910276711", "osm_id": "5910276711", "osm_type": "node", "sport": "weightlifting;crossfit", "name": "Allsouth Barbell", "leisure": "sports_centre", "building": "", "gnis:state_id": "", "gnis:county_id": "", "ele": "", "gnis:created": "", "gnis:feature_id": "", "addr:housenumber": "23", "addr:city": "Roswell", "addr:postcode": "30075", "addr:state": "GA", "alt_name": "", "addr:street": "Maple Street", "gnis:county_name": "" }, "geometry": { "type": "Point", "coordinates": [ 1019151.36038, -639946.43693 ] } },
{ "type": "Feature", "properties": { "full_id": "n5910276716", "osm_id": "5910276716", "osm_type": "node", "sport": "weightlifting;crossfit", "name": "Apesquad Sports Performance", "leisure": "sports_centre", "building": "", "gnis:state_id": "", "gnis:county_id": "", "ele": "", "gnis:created": "", "gnis:feature_id": "", "addr:housenumber": "6765", "addr:city": "Orlando", "addr:postcode": "32822", "addr:state": "FL", "alt_name": "", "addr:street": "Narcoossee Road", "gnis:county_name": "" }, "geometry": { "type": "Point", "coordinates": [ 1386725.77013, -1236985.65239 ] } },
{ "type": "Feature", "properties": { "full_id": "n5910361057", "osm_id": "5910361057", "osm_type": "node", "sport": "weightlifting;crossfit", "name": "Southern Strong Barbell", "leisure": "sports_centre", "building": "", "gnis:state_id": "", "gnis:county_id": "", "ele": "", "gnis:created": "", "gnis:feature_id": "", "addr:housenumber": "980", "addr:city": "Myrtle Beach", "addr:postcode": "29572", "addr:state": "SC", "alt_name": "", "addr:street": "Cipriana Dr", "gnis:county_name": "" }, "geometry": { "type": "Point", "coordinates": [ 1505894.24988, -595408.1746 ] } },
{ "type": "Feature", "properties": { "full_id": "n5910361060", "osm_id": "5910361060", "osm_type": "node", "sport": "weightlifting;crossfit", "name": "Body Shop X Barbell", "leisure": "sports_centre", "building": "", "gnis:state_id": "", "gnis:county_id": "", "ele": "", "gnis:created": "", "gnis:feature_id": "", "addr:housenumber": "1062", "addr:city": "Irmo", "addr:postcode": "29063", "addr:state": "SC", "alt_name": "", "addr:street": "Brevard Street", "gnis:county_name": "" }, "geometry": { "type": "Point", "coordinates": [ 1304098.2644, -598572.6915 ] } },
{ "type": "Feature", "properties": { "full_id": "n5910361064", "osm_id": "5910361064", "osm_type": "node", "sport": "weightlifting;crossfit", "name": "Forever Young Barbell", "leisure": "sports_centre", "building": "", "gnis:state_id": "", "gnis:county_id": "", "ele": "", "gnis:created": "", "gnis:feature_id": "", "addr:housenumber": "5895", "addr:city": "Orlando", "addr:postcode": "32819", "addr:state": "Florida", "alt_name": "", "addr:street": "Carrier Drive", "gnis:county_name": "" }, "geometry": { "type": "Point", "coordinates": [ 1369702.68376, -1241100.95316 ] } },
{ "type": "Feature", "properties": { "full_id": "n5910379505", "osm_id": "5910379505", "osm_type": "node", "sport": "weightlifting;crossfit", "name": "Oly Concepts", "leisure": "sports_centre", "building": "", "gnis:state_id": "", "gnis:county_id": "", "ele": "", "gnis:created": "", "gnis:feature_id": "", "addr:housenumber": "362", "addr:city": "Casselberry", "addr:postcode": "32707", "addr:state": "FL", "alt_name": "", "addr:street": "Melody Lane", "gnis:county_name": "" }, "geometry": { "type": "Point", "coordinates": [ 1376855.26458, -1214997.68614 ] } },
{ "type": "Feature", "properties": { "full_id": "n5910442403", "osm_id": "5910442403", "osm_type": "node", "sport": "weightlifting;crossfit", "name": "Wilmington Weightlifting Club", "leisure": "sports_centre", "building": "", "gnis:state_id": "", "gnis:county_id": "", "ele": "", "gnis:created": "", "gnis:feature_id": "", "addr:housenumber": "6427", "addr:city": "Wilmington", "addr:postcode": "28405", "addr:state": "NC", "alt_name": "", "addr:street": "Windmill Way Unit D", "gnis:county_name": "" }, "geometry": { "type": "Point", "coordinates": [ 1578764.77909, -522488.83984 ] } },
{ "type": "Feature", "properties": { "full_id": "n5910474538", "osm_id": "5910474538", "osm_type": "node", "sport": "weightlifting;crossfit", "name": "Beastmode Barbell Club", "leisure": "sports_centre", "building": "", "gnis:state_id": "", "gnis:county_id": "", "ele": "", "gnis:created": "", "gnis:feature_id": "", "addr:housenumber": "2320", "addr:city": "Fleming Island", "addr:postcode": "32003", "addr:state": "FL", "alt_name": "", "addr:street": "Market Dr", "gnis:county_name": "" }, "geometry": { "type": "Point", "coordinates": [ 1317938.12281, -1059483.72023 ] } },
{ "type": "Feature", "properties": { "full_id": "n5910524287", "osm_id": "5910524287", "osm_type": "node", "sport": "weightlifting;crossfit", "name": "Team Florida-Orlando Weightlifting", "leisure": "sports_centre", "building": "", "gnis:state_id": "", "gnis:county_id": "", "ele": "", "gnis:created": "", "gnis:feature_id": "", "addr:housenumber": "570", "addr:city": "Orlando", "addr:postcode": "32828", "addr:state": "FL", "alt_name": "", "addr:street": "N Alafaya Trail 112-114", "gnis:county_name": "" }, "geometry": { "type": "Point", "coordinates": [ 1391530.3534, -1226303.82425 ] } },
{ "type": "Feature", "properties": { "full_id": "n5910620564", "osm_id": "5910620564", "osm_type": "node", "sport": "weightlifting;crossfit", "name": "Butcher Barbell", "leisure": "sports_centre", "building": "", "gnis:state_id": "", "gnis:county_id": "", "ele": "", "gnis:created": "", "gnis:feature_id": "", "addr:housenumber": "227", "addr:city": "Pinehurst", "addr:postcode": "28374", "addr:state": "NC", "alt_name": "", "addr:street": "National Dr", "gnis:county_name": "" }, "geometry": { "type": "Point", "coordinates": [ 1422962.35074, -439886.06471 ] } },
{ "type": "Feature", "properties": { "full_id": "n5910620567", "osm_id": "5910620567", "osm_type": "node", "sport": "weightlifting;crossfit", "name": "Coastal Empire Weightlifting", "leisure": "sports_centre", "building": "", "gnis:state_id": "", "gnis:county_id": "", "ele": "", "gnis:created": "", "gnis:feature_id": "", "addr:housenumber": "2021", "addr:city": "Savannah", "addr:postcode": "31404", "addr:state": "GA", "alt_name": "", "addr:street": "Tennessee Ave", "gnis:county_name": "" }, "geometry": { "type": "Point", "coordinates": [ 1341752.89035, -825452.94746 ] } },
{ "type": "Feature", "properties": { "full_id": "n5910620571", "osm_id": "5910620571", "osm_type": "node", "sport": "weightlifting;crossfit", "name": "Iron Jungle", "leisure": "sports_centre", "building": "", "gnis:state_id": "", "gnis:county_id": "", "ele": "", "gnis:created": "", "gnis:feature_id": "", "addr:housenumber": "1327", "addr:city": "Leesburg", "addr:postcode": "34748", "addr:state": "FL", "alt_name": "", "addr:street": "Lee Court", "gnis:county_name": "" }, "geometry": { "type": "Point", "coordinates": [ 1324144.7197, -1204592.04262 ] } },
{ "type": "Feature", "properties": { "full_id": "n5910620572", "osm_id": "5910620572", "osm_type": "node", "sport": "weightlifting;crossfit", "name": "Iron Legion Barbell", "leisure": "sports_centre", "building": "", "gnis:state_id": "", "gnis:county_id": "", "ele": "", "gnis:created": "", "gnis:feature_id": "", "addr:housenumber": "217", "addr:city": "Ocala", "addr:postcode": "34471", "addr:state": "FL", "alt_name": "", "addr:street": "SE 1st Ave", "gnis:county_name": "" }, "geometry": { "type": "Point", "coordinates": [ 1294454.07556, -1167861.50227 ] } },
{ "type": "Feature", "properties": { "full_id": "n5910668478", "osm_id": "5910668478", "osm_type": "node", "sport": "weightlifting;crossfit", "name": "Florida Elite", "leisure": "sports_centre", "building": "", "gnis:state_id": "", "gnis:county_id": "", "ele": "", "gnis:created": "", "gnis:feature_id": "", "addr:housenumber": "4247", "addr:city": "Port Orange", "addr:postcode": "32127", "addr:state": "FL", "alt_name": "", "addr:street": "Jackson St", "gnis:county_name": "" }, "geometry": { "type": "Point", "coordinates": [ 1400540.5652, -1158032.577 ] } },
{ "type": "Feature", "properties": { "full_id": "n5910669785", "osm_id": "5910669785", "osm_type": "node", "sport": "weightlifting;crossfit", "name": "Heavy Metal Barbell", "leisure": "sports_centre", "building": "", "gnis:state_id": "", "gnis:county_id": "", "ele": "", "gnis:created": "", "gnis:feature_id": "", "addr:housenumber": "3900", "addr:city": "Charlotte", "addr:postcode": "28205", "addr:state": "NC", "alt_name": "", "addr:street": "Miriam Dr", "gnis:county_name": "" }, "geometry": { "type": "Point", "coordinates": [ 1307041.8865, -459529.91768 ] } },
{ "type": "Feature", "properties": { "full_id": "n5910669803", "osm_id": "5910669803", "osm_type": "node", "sport": "weightlifting;crossfit", "name": "Team Weightlifting Schoop", "leisure": "sports_centre", "building": "", "gnis:state_id": "", "gnis:county_id": "", "ele": "", "gnis:created": "", "gnis:feature_id": "", "addr:housenumber": "215", "addr:city": "Charlotte", "addr:postcode": "28217", "addr:state": "NC", "alt_name": "", "addr:street": "Southside Dr", "gnis:county_name": "" }, "geometry": { "type": "Point", "coordinates": [ 1299999.32982, -462056.55554 ] } },
{ "type": "Feature", "properties": { "full_id": "n5910751753", "osm_id": "5910751753", "osm_type": "node", "sport": "weightlifting;crossfit", "name": "The YMCA Weightlifting Team", "leisure": "sports_centre", "building": "", "gnis:state_id": "", "gnis:county_id": "", "ele": "", "gnis:created": "", "gnis:feature_id": "", "addr:housenumber": "5100", "addr:city": "Bradenton ", "addr:postcode": "34209", "addr:state": "FL", "alt_name": "", "addr:street": "Lakewood Ranch Blvd", "gnis:county_name": "" }, "geometry": { "type": "Point", "coordinates": [ 1295172.39488, -1368850.58317 ] } },
{ "type": "Feature", "properties": { "full_id": "n5910751759", "osm_id": "5910751759", "osm_type": "node", "sport": "weightlifting;crossfit", "name": "Vero Beach Weightlifting", "leisure": "sports_centre", "building": "", "gnis:state_id": "", "gnis:county_id": "", "ele": "", "gnis:created": "", "gnis:feature_id": "", "addr:housenumber": "3101 ", "addr:city": "Vero Beach", "addr:postcode": "32962", "addr:state": "FL", "alt_name": "", "addr:street": "Aviation Blvd Ste G", "gnis:county_name": "" }, "geometry": { "type": "Point", "coordinates": [ 1482325.19015, -1317096.62145 ] } },
{ "type": "Feature", "properties": { "full_id": "n5910751770", "osm_id": "5910751770", "osm_type": "node", "sport": "weightlifting;crossfit", "name": "Team Savannah Weightlifting", "leisure": "sports_centre", "building": "", "gnis:state_id": "", "gnis:county_id": "", "ele": "", "gnis:created": "", "gnis:feature_id": "", "addr:housenumber": "7232", "addr:city": "Savannah", "addr:postcode": "31406", "addr:state": "GA", "alt_name": "", "addr:street": "Varnedoe Dr", "gnis:county_name": "" }, "geometry": { "type": "Point", "coordinates": [ 1341325.94891, -832298.16615 ] } },
{ "type": "Feature", "properties": { "full_id": "n5910751773", "osm_id": "5910751773", "osm_type": "node", "sport": "weightlifting;crossfit", "name": "Harrisburg Weightlifting Clubwei", "leisure": "sports_centre", "building": "", "gnis:state_id": "", "gnis:county_id": "", "ele": "", "gnis:created": "", "gnis:feature_id": "", "addr:housenumber": "7501", "addr:city": "Harrisburg", "addr:postcode": "28075", "addr:state": "NC", "alt_name": "", "addr:street": "Caldwell Rd", "gnis:county_name": "" }, "geometry": { "type": "Point", "coordinates": [ 1315417.63012, -444572.39592 ] } },
{ "type": "Feature", "properties": { "full_id": "n5910885642", "osm_id": "5910885642", "osm_type": "node", "sport": "weightlifting;crossfit", "name": "Reality Workouts Weightlifting", "leisure": "sports_centre", "building": "", "gnis:state_id": "", "gnis:county_id": "", "ele": "", "gnis:created": "", "gnis:feature_id": "", "addr:housenumber": "4303", "addr:city": "Garner", "addr:postcode": "27529", "addr:state": "NC", "alt_name": "", "addr:street": "S Shiloh Rd", "gnis:county_name": "" }, "geometry": { "type": "Point", "coordinates": [ 1488966.00911, -382852.67038 ] } },
{ "type": "Feature", "properties": { "full_id": "n5910885655", "osm_id": "5910885655", "osm_type": "node", "sport": "weightlifting;crossfit", "name": "Optimus Barbell Club", "leisure": "sports_centre", "building": "", "gnis:state_id": "", "gnis:county_id": "", "ele": "", "gnis:created": "", "gnis:feature_id": "", "addr:housenumber": "336", "addr:city": "North Palm Beach", "addr:postcode": "33408", "addr:state": "FL", "alt_name": "", "addr:street": "Golfview Rd 519", "gnis:county_name": "" }, "geometry": { "type": "Point", "coordinates": [ 1531451.05081, -1402923.32777 ] } },
{ "type": "Feature", "properties": { "full_id": "n5910885672", "osm_id": "5910885672", "osm_type": "node", "sport": "weightlifting;crossfit", "name": "No Respect 4 Gravity", "leisure": "sports_centre", "building": "", "gnis:state_id": "", "gnis:county_id": "", "ele": "", "gnis:created": "", "gnis:feature_id": "", "addr:housenumber": "6868", "addr:city": "Margate", "addr:postcode": "33063", "addr:state": "FL", "alt_name": "", "addr:street": "W Atlantic Blvd", "gnis:county_name": "" }, "geometry": { "type": "Point", "coordinates": [ 1528043.77008, -1472807.29804 ] } },
{ "type": "Feature", "properties": { "full_id": "n5910922981", "osm_id": "5910922981", "osm_type": "node", "sport": "weightlifting;crossfit", "name": "SEDulous Barbell", "leisure": "sports_centre", "building": "", "gnis:state_id": "", "gnis:county_id": "", "ele": "", "gnis:created": "", "gnis:feature_id": "", "addr:housenumber": "4098 ", "addr:city": "Pico Rivera", "addr:postcode": "90660", "addr:state": "CA", "alt_name": "", "addr:street": "PGA Blvd", "gnis:county_name": "" }, "geometry": { "type": "Point", "coordinates": [ 1527662.77346, -1402944.83922 ] } },
{ "type": "Feature", "properties": { "full_id": "n5910923593", "osm_id": "5910923593", "osm_type": "node", "sport": "weightlifting;crossfit", "name": "Supreme Fitness and Weightlifting", "leisure": "sports_centre", "building": "", "gnis:state_id": "", "gnis:county_id": "", "ele": "", "gnis:created": "", "gnis:feature_id": "", "addr:housenumber": "14704", "addr:city": "Loxahatchee", "addr:postcode": "33470", "addr:state": "FL", "alt_name": "", "addr:street": "79th Ct N", "gnis:county_name": "" }, "geometry": { "type": "Point", "coordinates": [ 1512113.53114, -1410884.52067 ] } },
{ "type": "Feature", "properties": { "full_id": "n5910276718", "osm_id": "5910276718", "osm_type": "node", "sport": "weightlifting;crossfit", "name": "Ascendancy Weightlifting and Fitness", "leisure": "sports_centre", "building": "", "gnis:state_id": "", "gnis:county_id": "", "ele": "", "gnis:created": "", "gnis:feature_id": "", "addr:housenumber": "3048", "addr:city": "Casa Grande", "addr:postcode": "8512", "addr:state": "AZ", "alt_name": "", "addr:street": "North Cessna Avenue", "gnis:county_name": "" }, "geometry": { "type": "Point", "coordinates": [ -1398058.71235, -710725.80262 ] } },
{ "type": "Feature", "properties": { "full_id": "n5910922976", "osm_id": "5910922976", "osm_type": "node", "sport": "weightlifting;crossfit", "name": "Team Arizona Weightlifting", "leisure": "sports_centre", "building": "", "gnis:state_id": "", "gnis:county_id": "", "ele": "", "gnis:created": "", "gnis:feature_id": "", "addr:housenumber": "18520", "addr:city": "Queen Creek", "addr:postcode": "85142", "addr:state": "AZ", "alt_name": "", "addr:street": "E Via De Palmas", "gnis:county_name": "" }, "geometry": { "type": "Point", "coordinates": [ -1385628.41788, -679244.75446 ] } },
{ "type": "Feature", "properties": { "full_id": "n5910922980", "osm_id": "5910922980", "osm_type": "node", "sport": "weightlifting;crossfit", "name": "SAS Weightlifing Club", "leisure": "sports_centre", "building": "", "gnis:state_id": "", "gnis:county_id": "", "ele": "", "gnis:created": "", "gnis:feature_id": "", "addr:housenumber": "244", "addr:city": "Tucson", "addr:postcode": "85716", "addr:state": "AZ", "alt_name": "", "addr:street": "S Tuscon Blvd", "gnis:county_name": "" }, "geometry": { "type": "Point", "coordinates": [ -1338611.29629, -806089.88885 ] } }
]
}
